TimePST,TemperatureF,Dew PointF,Humidity,Sea Level PressureIn,VisibilityMPH,Wind Direction,Wind SpeedMPH,Gust SpeedMPH,PrecipitationIn,Events,Conditions,WindDirDegrees,DateUTC
12:56 AM,59.0,52.0,78,30.00,10.0,SSE,9.2,-,N/A,,Mostly Cloudy,160,2012-12-01 08:56:00
1:52 AM,60.8,51.8,72,29.99,10.0,SSE,13.8,-,N/A,,Overcast,150,2012-12-01 09:52:00
1:56 AM,60.1,52.0,75,29.99,10.0,SSE,13.8,-,N/A,,Overcast,150,2012-12-01 09:56:00
2:56 AM,57.9,54.0,87,29.98,3.0,SE,10.4,-,0.01,Rain,Light Rain,130,2012-12-01 10:56:00
3:16 AM,57.2,53.6,88,29.98,3.0,SE,12.7,-,0.02,Rain,Light Rain,130,2012-12-01 11:16:00
3:56 AM,57.9,54.0,87,29.97,5.0,SE,13.8,-,0.05,Rain,Light Rain,130,2012-12-01 11:56:00
4:56 AM,59.0,54.0,83,29.96,10.0,SSE,12.7,-,0.00,,Overcast,150,2012-12-01 12:56:00
5:41 AM,57.2,55.4,94,29.96,2.5,SE,13.8,-,0.02,Rain,Light Rain,140,2012-12-01 13:41:00
5:56 AM,57.9,55.0,90,29.96,2.5,SE,12.7,-,0.04,Rain,Rain,140,2012-12-01 13:56:00
6:08 AM,57.2,55.4,94,29.97,3.0,SSE,10.4,-,0.01,Rain,Light Rain,150,2012-12-01 14:08:00
6:56 AM,57.9,55.0,90,29.98,4.0,ESE,10.4,-,0.10,Rain,Light Rain,120,2012-12-01 14:56:00
7:39 AM,59.0,55.4,88,29.99,4.0,SE,11.5,-,0.01,Rain,Light Rain,130,2012-12-01 15:39:00
7:41 AM,59.0,55.4,88,29.98,2.5,SE,10.4,-,0.01,Rain,Light Rain,140,2012-12-01 15:41:00
7:56 AM,59.0,55.9,90,29.99,2.5,SE,15.0,-,0.04,Rain,Light Rain,140,2012-12-01 15:56:00
8:23 AM,60.8,57.2,88,30.00,4.0,SSE,12.7,-,0.01,Rain,Light Rain,150,2012-12-01 16:23:00
8:54 AM,62.6,57.2,82,30.01,2.5,South,15.0,-,0.01,Rain,Light Rain,170,2012-12-01 16:54:00
8:56 AM,62.1,57.0,84,30.01,2.5,South,15.0,-,0.02,Rain,Light Rain,170,2012-12-01 16:56:00
9:21 AM,62.6,57.2,82,30.02,5.0,South,11.5,-,0.00,Rain,Light Rain,180,2012-12-01 17:21:00
9:56 AM,62.1,57.0,84,30.03,6.0,South,15.0,23.0,0.01,Rain,Light Rain,180,2012-12-01 17:56:00
10:56 AM,62.1,57.0,84,30.04,4.0,South,9.2,-,0.04,Rain,Light Rain,190,2012-12-01 18:56:00
11:56 AM,63.0,57.0,81,30.02,10.0,SSW,8.1,-,0.01,,Overcast,210,2012-12-01 19:56:00
12:56 PM,64.0,55.9,75,30.01,10.0,SSW,9.2,-,0.00,,Mostly Cloudy,200,2012-12-01 20:56:00
1:56 PM,63.0,54.0,72,30.00,10.0,SSW,12.7,-,0.00,,Mostly Cloudy,210,2012-12-01 21:56:00
2:56 PM,63.0,55.0,75,29.99,10.0,South,10.4,-,N/A,,Overcast,180,2012-12-01 22:56:00
3:56 PM,62.1,54.0,75,29.99,10.0,South,10.4,-,0.00,,Overcast,180,2012-12-01 23:56:00
4:56 PM,61.0,55.0,81,29.97,9.0,SSE,11.5,21.9,0.00,Rain,Light Rain,160,2012-12-02 00:56:00
5:48 PM,60.8,53.6,77,29.96,9.0,South,6.9,-,0.01,Rain,Light Rain,170,2012-12-02 01:48:00
5:56 PM,60.1,54.0,80,29.95,4.0,SE,8.1,-,0.02,Rain,Heavy Rain,130,2012-12-02 01:56:00
6:56 PM,60.1,55.0,83,29.94,8.0,SE,11.5,-,0.07,Rain,Light Rain,130,2012-12-02 02:56:00
7:33 PM,59.0,55.4,88,29.91,4.0,ESE,13.8,-,0.15,Rain,Heavy Rain,120,2012-12-02 03:33:00
7:56 PM,59.0,55.9,90,29.91,4.0,ESE,13.8,-,0.24,Rain,Heavy Rain,120,2012-12-02 03:56:00
8:14 PM,59.0,55.4,88,29.91,8.0,SE,13.8,-,0.04,Rain,Light Rain,130,2012-12-02 04:14:00
8:45 PM,59.0,55.4,88,29.91,5.0,SSE,12.7,-,0.09,Rain,Rain,150,2012-12-02 04:45:00
8:56 PM,59.0,55.9,90,29.91,5.0,SE,13.8,-,0.10,Rain,Light Rain,140,2012-12-02 04:56:00
9:18 PM,59.0,55.4,88,29.90,4.0,SE,11.5,-,0.03,Rain,Light Rain,140,2012-12-02 05:18:00
9:56 PM,62.1,57.0,84,29.90,3.0,South,21.9,28.8,0.04,,Haze,170,2012-12-02 05:56:00
10:56 PM,62.1,57.0,84,29.90,5.0,South,20.7,31.1,0.02,Rain,Light Rain,170,2012-12-02 06:56:00
11:56 PM,62.1,57.9,86,29.89,5.0,South,17.3,27.6,0.01,Rain,Light Rain,180,2012-12-02 07:56:00
12:33 AM,62.6,57.2,82,29.88,10.0,South,18.4,27.6,0.01,,Overcast,190,2012-12-02 08:33:00
12:56 AM,63.0,57.9,84,29.87,5.0,South,23.0,31.1,0.01,,Haze,180,2012-12-02 08:56:00
1:29 AM,64.4,57.2,77,29.86,10.0,South,19.6,34.5,0.00,Rain,Light Rain,190,2012-12-02 09:29:00
1:56 AM,64.0,57.9,80,29.86,10.0,South,19.6,33.4,0.00,,Overcast,190,2012-12-02 09:56:00
2:49 AM,62.6,57.2,82,29.85,10.0,SSW,34.5,44.9,N/A,,Mostly Cloudy,200,2012-12-02 10:49:00
2:56 AM,63.0,57.0,81,29.84,10.0,SSW,32.2,44.9,N/A,,Mostly Cloudy,200,2012-12-02 10:56:00
3:19 AM,64.4,57.2,77,29.82,10.0,SSW,27.6,40.3,N/A,,Mostly Cloudy,200,2012-12-02 11:19:00
3:56 AM,64.0,55.9,75,29.81,10.0,South,38.0,49.5,N/A,,Mostly Cloudy,190,2012-12-02 11:56:00
4:17 AM,64.4,55.4,73,29.79,10.0,South,32.2,47.2,N/A,,Mostly Cloudy,190,2012-12-02 12:17:00
4:56 AM,64.0,57.0,78,29.78,8.0,South,34.5,49.5,0.00,Rain,Light Rain,190,2012-12-02 12:56:00
5:05 AM,62.6,57.2,82,29.78,7.0,South,31.1,48.3,0.00,Rain,Light Rain,190,2012-12-02 13:05:00
5:23 AM,62.6,57.2,82,29.78,10.0,South,29.9,42.6,0.00,Rain,Light Rain,190,2012-12-02 13:23:00
5:41 AM,62.6,59.0,88,29.78,2.0,South,28.8,44.9,0.06,,Overcast,190,2012-12-02 13:41:00
5:45 AM,62.6,59.0,88,29.78,2.0,South,32.2,44.9,0.07,,Overcast,190,2012-12-02 13:45:00
5:56 AM,63.0,59.0,87,29.78,2.5,South,36.8,51.8,0.10,,Overcast,190,2012-12-02 13:56:00
6:26 AM,62.6,59.0,88,29.76,6.0,South,39.1,50.6,0.04,Rain,Light Rain,190,2012-12-02 14:26:00
6:56 AM,63.0,59.0,87,29.77,2.5,South,26.5,48.3,0.13,Rain,Heavy Rain,190,2012-12-02 14:56:00
7:42 AM,62.6,57.2,82,29.77,3.0,South,31.1,46.0,0.23,Rain,Heavy Rain,190,2012-12-02 15:42:00
7:56 AM,62.6,57.2,82,29.77,4.0,South,35.7,47.2,N/A,Rain,Rain,190,2012-12-02 15:56:00
8:13 AM,62.6,57.2,82,29.79,1.5,SSW,32.2,46.0,0.08,Rain,Heavy Rain,200,2012-12-02 16:13:00
8:26 AM,60.8,55.4,82,29.82,3.0,West,28.8,49.5,0.17,Rain,Heavy Rain,270,2012-12-02 16:26:00
8:56 AM,57.9,55.0,90,29.85,3.0,WSW,13.8,27.6,0.23,Rain,Rain,250,2012-12-02 16:56:00
9:27 AM,57.2,55.4,94,29.87,2.5,WSW,17.3,24.2,0.08,Rain,Heavy Rain,240,2012-12-02 17:27:00
9:41 AM,57.2,55.4,94,29.88,3.0,West,13.8,-,0.11,Rain,Rain,260,2012-12-02 17:41:00
10:56 AM,60.1,55.9,86,29.92,10.0,WSW,12.7,24.2,0.03,,Mostly Cloudy,240,2012-12-02 18:56:00
11:39 AM,57.2,55.4,94,29.94,7.0,West,20.7,28.8,0.00,Rain,Rain,280,2012-12-02 19:39:00
11:56 AM,57.9,55.0,90,29.94,8.0,West,16.1,-,0.00,,Mostly Cloudy,270,2012-12-02 19:56:00
12:32 PM,59.0,51.8,77,29.94,10.0,West,12.7,18.4,N/A,,Mostly Cloudy,270,2012-12-02 20:32:00
12:56 PM,59.0,50.0,72,29.95,10.0,WNW,11.5,-,N/A,,Mostly Cloudy,290,2012-12-02 20:56:00
1:56 PM,60.1,48.9,67,29.97,10.0,West,11.5,-,N/A,,Scattered Clouds,280,2012-12-02 21:56:00
2:56 PM,60.1,46.0,60,29.99,10.0,West,13.8,-,N/A,,Scattered Clouds,280,2012-12-02 22:56:00
3:56 PM,59.0,46.4,63,30.00,10.0,West,10.4,-,N/A,,Scattered Clouds,270,2012-12-02 23:56:00
4:56 PM,57.0,46.0,67,30.02,10.0,West,5.8,-,N/A,,Scattered Clouds,270,2012-12-03 00:56:00
5:56 PM,55.9,45.0,67,30.02,10.0,West,9.2,-,N/A,,Partly Cloudy,270,2012-12-03 01:56:00
6:56 PM,55.0,45.0,69,30.05,10.0,WSW,8.1,-,N/A,,Clear,250,2012-12-03 02:56:00
7:56 PM,53.1,44.1,71,30.07,10.0,WNW,4.6,-,N/A,,Clear,300,2012-12-03 03:56:00
8:56 PM,51.1,44.1,77,30.08,10.0,SSW,4.6,-,N/A,,Clear,200,2012-12-03 04:56:00
9:56 PM,52.0,44.1,74,30.09,10.0,SW,5.8,-,N/A,,Partly Cloudy,220,2012-12-03 05:56:00
10:56 PM,53.1,46.0,77,30.11,10.0,West,8.1,-,N/A,,Mostly Cloudy,280,2012-12-03 06:56:00
11:56 PM,54.0,46.9,77,30.11,10.0,NNW,3.5,-,N/A,,Mostly Cloudy,330,2012-12-03 07:56:00
12:56 AM,51.1,46.0,83,30.12,10.0,Calm,Calm,-,N/A,,Scattered Clouds,0,2012-12-03 08:56:00
1:56 AM,48.9,45.0,86,30.13,10.0,WSW,3.5,-,N/A,,Mostly Cloudy,240,2012-12-03 09:56:00
2:56 AM,48.9,45.0,86,30.12,10.0,WSW,3.5,-,N/A,,Mostly Cloudy,240,2012-12-03 10:56:00
3:56 AM,48.9,45.0,86,30.14,10.0,Calm,Calm,-,N/A,,Mostly Cloudy,0,2012-12-03 11:56:00
4:56 AM,46.9,44.1,90,30.14,10.0,South,3.5,-,N/A,,Mostly Cloudy,190,2012-12-03 12:56:00
5:56 AM,46.0,42.1,86,30.15,10.0,Calm,Calm,-,N/A,,Mostly Cloudy,0,2012-12-03 13:56:00
6:56 AM,46.9,44.1,90,30.17,10.0,Calm,Calm,-,N/A,,Mostly Cloudy,0,2012-12-03 14:56:00
7:56 AM,48.9,44.1,83,30.19,10.0,WNW,3.5,-,N/A,,Scattered Clouds,290,2012-12-03 15:56:00
8:56 AM,52.0,46.0,80,30.20,10.0,Calm,Calm,-,N/A,,Scattered Clouds,0,2012-12-03 16:56:00
9:56 AM,53.1,46.9,80,30.21,10.0,East,3.5,-,N/A,,Scattered Clouds,100,2012-12-03 17:56:00
10:56 AM,54.0,48.0,80,30.21,10.0,East,3.5,-,N/A,,Scattered Clouds,80,2012-12-03 18:56:00
11:56 AM,55.0,48.0,77,30.18,10.0,East,3.5,-,N/A,,Mostly Cloudy,90,2012-12-03 19:56:00
12:56 PM,55.9,46.9,72,30.17,10.0,NE,4.6,-,N/A,,Mostly Cloudy,50,2012-12-03 20:56:00
1:56 PM,59.0,45.0,60,30.16,10.0,Calm,Calm,-,N/A,,Mostly Cloudy,0,2012-12-03 21:56:00
2:56 PM,59.0,44.1,58,30.16,10.0,Calm,Calm,-,N/A,,Mostly Cloudy,0,2012-12-03 22:56:00
3:56 PM,57.9,46.9,67,30.17,10.0,North,3.5,-,N/A,,Mostly Cloudy,10,2012-12-03 23:56:00
4:56 PM,57.0,46.0,67,30.16,10.0,NE,3.5,-,N/A,,Mostly Cloudy,50,2012-12-04 00:56:00
5:56 PM,57.9,44.1,60,30.17,10.0,Calm,Calm,-,N/A,,Mostly Cloudy,0,2012-12-04 01:56:00
6:56 PM,57.0,46.9,69,30.17,10.0,Calm,Calm,-,N/A,,Mostly Cloudy,0,2012-12-04 02:56:00
7:56 PM,57.0,48.0,72,30.17,10.0,South,3.5,-,N/A,,Mostly Cloudy,180,2012-12-04 03:56:00
8:56 PM,55.0,46.9,74,30.17,10.0,SSW,4.6,-,N/A,,Mostly Cloudy,210,2012-12-04 04:56:00
9:56 PM,55.0,48.0,77,30.18,10.0,NW,3.5,-,N/A,,Mostly Cloudy,310,2012-12-04 05:56:00
10:56 PM,54.0,46.0,75,30.17,10.0,SSW,3.5,-,N/A,,Scattered Clouds,200,2012-12-04 06:56:00
11:56 PM,53.1,46.9,80,30.17,10.0,South,5.8,-,N/A,,Mostly Cloudy,180,2012-12-04 07:56:00
12:56 AM,52.0,46.0,80,30.18,10.0,West,4.6,-,N/A,,Mostly Cloudy,280,2012-12-04 08:56:00
1:56 AM,54.0,46.9,77,30.20,10.0,West,5.8,-,N/A,,Mostly Cloudy,270,2012-12-04 09:56:00
2:56 AM,55.0,48.0,77,30.20,10.0,Calm,Calm,-,N/A,,Mostly Cloudy,0,2012-12-04 10:56:00
3:56 AM,55.9,48.9,77,30.19,10.0,SSE,3.5,-,N/A,,Mostly Cloudy,150,2012-12-04 11:56:00
4:56 AM,55.0,48.9,80,30.18,10.0,SE,10.4,-,N/A,,Mostly Cloudy,130,2012-12-04 12:56:00
5:56 AM,54.0,48.9,83,30.20,10.0,SSE,6.9,-,N/A,,Mostly Cloudy,150,2012-12-04 13:56:00
6:56 AM,54.0,48.9,83,30.20,10.0,SSE,6.9,-,N/A,,Mostly Cloudy,160,2012-12-04 14:56:00
7:56 AM,55.0,48.9,80,30.21,10.0,Calm,Calm,-,N/A,,Mostly Cloudy,0,2012-12-04 15:56:00
8:56 AM,55.9,50.0,80,30.22,10.0,Calm,Calm,-,N/A,,Mostly Cloudy,0,2012-12-04 16:56:00
9:56 AM,57.0,50.0,77,30.23,10.0,ESE,8.1,-,N/A,,Mostly Cloudy,110,2012-12-04 17:56:00
10:56 AM,57.9,50.0,75,30.23,10.0,Calm,Calm,-,N/A,,Mostly Cloudy,0,2012-12-04 18:56:00
11:56 AM,57.9,51.1,78,30.21,10.0,Calm,Calm,-,N/A,,Overcast,0,2012-12-04 19:56:00
12:56 PM,57.9,51.1,78,30.19,10.0,ENE,4.6,-,N/A,,Overcast,60,2012-12-04 20:56:00
1:56 PM,59.0,51.1,75,30.18,10.0,North,4.6,-,N/A,,Overcast,10,2012-12-04 21:56:00
2:56 PM,59.0,50.0,72,30.19,10.0,NW,3.5,-,N/A,,Mostly Cloudy,310,2012-12-04 22:56:00
3:56 PM,61.0,48.0,62,30.18,10.0,South,6.9,-,N/A,,Overcast,190,2012-12-04 23:56:00
4:56 PM,62.1,42.1,48,30.17,10.0,SSE,12.7,-,N/A,,Mostly Cloudy,150,2012-12-05 00:56:00
5:56 PM,61.0,48.0,62,30.18,10.0,SE,10.4,-,N/A,,Overcast,130,2012-12-05 01:56:00
6:56 PM,60.1,48.0,64,30.19,10.0,SE,4.6,-,N/A,,Overcast,140,2012-12-05 02:56:00
7:56 PM,60.1,50.0,69,30.17,10.0,SE,8.1,-,N/A,,Overcast,140,2012-12-05 03:56:00
8:56 PM,61.0,48.0,62,30.16,10.0,SSE,6.9,-,N/A,,Overcast,150,2012-12-05 04:56:00
9:56 PM,60.1,51.1,72,30.16,10.0,ESE,3.5,-,N/A,,Overcast,120,2012-12-05 05:56:00
10:56 PM,61.0,52.0,72,30.15,10.0,SE,6.9,17.3,N/A,,Overcast,130,2012-12-05 06:56:00
11:21 PM,60.8,53.6,77,30.15,9.0,South,15.0,18.4,0.00,Rain,Light Rain,170,2012-12-05 07:21:00
11:44 PM,60.8,55.4,82,30.14,9.0,South,16.1,24.2,0.00,Rain,Light Rain,170,2012-12-05 07:44:00
11:56 PM,60.1,55.9,86,30.14,9.0,SSE,13.8,-,0.00,Rain,Light Rain,160,2012-12-05 07:56:00
12:27 AM,60.8,55.4,82,30.15,9.0,South,15.0,-,0.00,Rain,Light Rain,170,2012-12-05 08:27:00
12:56 AM,61.0,55.9,83,30.14,8.0,South,15.0,-,0.00,,Light Drizzle,170,2012-12-05 08:56:00
1:40 AM,60.8,57.2,88,30.14,9.0,SSE,10.4,-,0.00,,Overcast,150,2012-12-05 09:40:00
1:56 AM,62.1,57.0,84,30.14,10.0,SSE,10.4,-,0.00,,Light Drizzle,150,2012-12-05 09:56:00
2:56 AM,61.0,57.0,87,30.14,9.0,SSE,10.4,-,0.00,,Light Drizzle,160,2012-12-05 10:56:00
3:18 AM,60.8,57.2,88,30.13,10.0,SSE,10.4,-,0.00,,Light Drizzle,160,2012-12-05 11:18:00
3:56 AM,60.8,57.2,88,30.12,10.0,South,11.5,-,N/A,,Light Drizzle,170,2012-12-05 11:56:00
4:56 AM,61.0,57.0,87,30.12,10.0,SSE,9.2,-,0.00,,Overcast,150,2012-12-05 12:56:00
6:56 AM,59.0,55.9,90,30.14,2.5,East,8.1,-,0.37,Rain,Rain,100,2012-12-05 14:56:00
7:56 AM,59.0,55.9,90,30.14,8.0,ESE,6.9,-,0.10,Rain,Light Rain,110,2012-12-05 15:56:00
8:56 AM,59.0,55.9,90,30.15,8.0,ENE,5.8,-,0.01,Rain,Light Rain,70,2012-12-05 16:56:00
9:56 AM,60.1,55.9,86,30.17,10.0,SSE,3.5,-,0.00,,Overcast,150,2012-12-05 17:56:00
10:56 AM,60.8,57.2,88,30.16,10.0,Calm,Calm,-,N/A,Rain,Light Rain,0,2012-12-05 18:56:00
11:38 AM,60.8,57.2,88,30.14,2.0,Calm,Calm,-,0.02,Rain,Light Rain,0,2012-12-05 19:38:00
11:47 AM,60.8,57.2,88,30.14,3.0,North,3.5,-,0.02,Rain,Light Rain,10,2012-12-05 19:47:00
11:56 AM,61.0,57.0,87,30.14,5.0,North,3.5,-,0.02,,Overcast,10,2012-12-05 19:56:00
12:42 PM,60.8,57.2,88,30.12,4.0,North,4.6,-,0.00,Rain,Light Rain,10,2012-12-05 20:42:00
12:56 PM,61.0,57.9,90,30.11,4.0,NNE,6.9,-,0.00,,Overcast,20,2012-12-05 20:56:00
1:56 PM,61.0,57.0,87,30.10,9.0,NNE,5.8,-,N/A,,Overcast,20,2012-12-05 21:56:00
2:56 PM,61.0,57.9,90,30.09,9.0,North,5.8,-,N/A,,Overcast,350,2012-12-05 22:56:00
3:56 PM,62.1,57.9,86,30.09,10.0,NNW,3.5,-,N/A,,Overcast,340,2012-12-05 23:56:00
4:56 PM,61.0,57.0,87,30.10,6.0,North,8.1,-,N/A,,Overcast,10,2012-12-06 00:56:00
5:40 PM,60.8,57.2,88,30.10,10.0,North,8.1,-,N/A,,Overcast,350,2012-12-06 01:40:00
5:56 PM,61.0,57.0,87,30.11,10.0,NNW,9.2,-,N/A,,Overcast,340,2012-12-06 01:56:00
6:56 PM,60.1,57.0,90,30.12,10.0,NNW,10.4,-,N/A,,Overcast,340,2012-12-06 02:56:00
7:56 PM,61.0,55.9,83,30.12,10.0,NW,8.1,-,N/A,,Overcast,320,2012-12-06 03:56:00
8:56 PM,60.1,55.9,86,30.13,10.0,NW,4.6,-,N/A,,Overcast,320,2012-12-06 04:56:00
9:56 PM,60.1,55.9,86,30.13,10.0,North,4.6,-,N/A,,Overcast,360,2012-12-06 05:56:00
10:56 PM,59.0,55.0,87,30.14,10.0,North,6.9,-,N/A,,Overcast,350,2012-12-06 06:56:00
11:22 PM,59.0,55.4,88,30.13,9.0,North,8.1,-,N/A,,Overcast,360,2012-12-06 07:22:00
11:56 PM,57.9,55.0,90,30.14,9.0,North,5.8,-,N/A,,Overcast,350,2012-12-06 07:56:00
12:16 AM,57.2,55.4,94,30.13,9.0,NNW,3.5,-,N/A,,Overcast,330,2012-12-06 08:16:00
12:41 AM,59.0,55.4,88,30.13,9.0,West,8.1,-,N/A,,Overcast,280,2012-12-06 08:41:00
12:56 AM,57.9,55.0,90,30.13,9.0,West,8.1,-,N/A,,Overcast,280,2012-12-06 08:56:00
1:56 AM,57.0,54.0,89,30.13,10.0,West,11.5,-,N/A,,Overcast,270,2012-12-06 09:56:00
2:56 AM,55.9,52.0,87,30.13,6.0,West,12.7,-,N/A,,Overcast,280,2012-12-06 10:56:00
3:41 AM,55.4,51.8,88,30.12,9.0,West,16.1,-,N/A,,Overcast,270,2012-12-06 11:41:00
3:56 AM,55.9,50.0,80,30.12,10.0,West,13.8,-,N/A,,Overcast,270,2012-12-06 11:56:00
4:56 AM,55.0,48.0,77,30.12,10.0,West,18.4,-,N/A,,Overcast,270,2012-12-06 12:56:00
5:11 AM,55.4,48.2,77,30.11,10.0,West,15.0,-,N/A,,Mostly Cloudy,270,2012-12-06 13:11:00
5:27 AM,53.6,46.4,77,30.11,10.0,West,16.1,-,N/A,,Scattered Clouds,270,2012-12-06 13:27:00
5:56 AM,54.0,46.9,77,30.12,10.0,West,17.3,-,N/A,,Scattered Clouds,280,2012-12-06 13:56:00
6:56 AM,53.1,46.0,77,30.12,10.0,West,12.7,-,N/A,,Partly Cloudy,270,2012-12-06 14:56:00
7:56 AM,54.0,46.9,77,30.13,10.0,West,11.5,-,N/A,,Partly Cloudy,270,2012-12-06 15:56:00
8:56 AM,55.9,46.9,72,30.14,10.0,West,12.7,-,N/A,,Scattered Clouds,260,2012-12-06 16:56:00
9:56 AM,57.0,46.0,67,30.14,10.0,West,10.4,-,N/A,,Scattered Clouds,280,2012-12-06 17:56:00
10:10 AM,57.2,46.4,67,30.14,10.0,West,9.2,-,N/A,,Mostly Cloudy,280,2012-12-06 18:10:00
10:56 AM,57.0,46.0,67,30.14,10.0,WSW,10.4,-,N/A,,Mostly Cloudy,250,2012-12-06 18:56:00
11:56 AM,57.0,45.0,64,30.12,10.0,SW,5.8,-,N/A,,Mostly Cloudy,230,2012-12-06 19:56:00
12:56 PM,57.9,46.0,65,30.10,10.0,SSW,4.6,-,N/A,,Mostly Cloudy,210,2012-12-06 20:56:00
1:56 PM,57.9,45.0,62,30.09,10.0,Calm,Calm,-,N/A,,Scattered Clouds,0,2012-12-06 21:56:00
2:56 PM,57.9,46.9,67,30.08,10.0,NNE,5.8,-,N/A,,Scattered Clouds,20,2012-12-06 22:56:00
3:56 PM,57.9,46.9,67,30.09,10.0,NNW,6.9,-,N/A,,Scattered Clouds,340,2012-12-06 23:56:00
4:46 PM,57.2,48.2,72,30.09,10.0,WNW,11.5,-,N/A,,Mostly Cloudy,290,2012-12-07 00:46:00
4:56 PM,57.0,46.9,69,30.09,10.0,WNW,10.4,-,N/A,,Mostly Cloudy,290,2012-12-07 00:56:00
5:41 PM,55.4,48.2,77,30.10,10.0,West,12.7,-,N/A,,Scattered Clouds,280,2012-12-07 01:41:00
5:56 PM,55.0,48.0,77,30.10,10.0,West,11.5,-,N/A,,Scattered Clouds,280,2012-12-07 01:56:00
6:25 PM,55.4,48.2,77,30.10,10.0,West,12.7,-,N/A,,Mostly Cloudy,280,2012-12-07 02:25:00
6:56 PM,55.0,48.0,77,30.11,10.0,West,10.4,-,N/A,,Overcast,280,2012-12-07 02:56:00
7:29 PM,53.6,46.4,77,30.12,10.0,West,9.2,-,N/A,,Partly Cloudy,280,2012-12-07 03:29:00
7:56 PM,54.0,46.9,77,30.12,10.0,WNW,4.6,-,N/A,,Partly Cloudy,290,2012-12-07 03:56:00
8:56 PM,53.1,46.0,77,30.12,10.0,West,4.6,-,N/A,,Partly Cloudy,280,2012-12-07 04:56:00
9:56 PM,53.1,46.0,77,30.13,10.0,WNW,4.6,-,N/A,,Clear,290,2012-12-07 05:56:00
10:56 PM,53.1,46.0,77,30.13,10.0,WNW,3.5,-,N/A,,Clear,300,2012-12-07 06:56:00
11:56 PM,55.0,46.0,72,30.13,10.0,North,3.5,-,N/A,,Clear,350,2012-12-07 07:56:00
12:56 AM,50.0,45.0,83,30.13,10.0,WSW,3.5,-,N/A,,Partly Cloudy,250,2012-12-07 08:56:00
1:56 AM,48.9,44.1,83,30.13,10.0,SSW,3.5,-,N/A,,Partly Cloudy,200,2012-12-07 09:56:00
2:56 AM,46.9,43.0,86,30.13,10.0,SSW,3.5,-,N/A,,Clear,200,2012-12-07 10:56:00
3:56 AM,46.9,43.0,86,30.12,10.0,SSW,3.5,-,N/A,,Clear,200,2012-12-07 11:56:00
4:56 AM,46.9,43.0,86,30.12,10.0,Calm,Calm,-,N/A,,Clear,0,2012-12-07 12:56:00
5:56 AM,46.0,42.1,86,30.12,10.0,Calm,Calm,-,N/A,,Clear,0,2012-12-07 13:56:00
6:56 AM,46.0,42.1,86,30.12,10.0,West,4.6,-,N/A,,Scattered Clouds,270,2012-12-07 14:56:00
7:56 AM,48.0,44.1,86,30.14,10.0,West,3.5,-,N/A,,Scattered Clouds,270,2012-12-07 15:56:00
8:56 AM,53.1,46.9,80,30.14,10.0,Calm,Calm,-,N/A,,Scattered Clouds,0,2012-12-07 16:56:00
9:56 AM,55.0,48.0,77,30.16,10.0,Calm,Calm,-,N/A,,Mostly Cloudy,0,2012-12-07 17:56:00
10:56 AM,55.9,48.0,75,30.15,10.0,Calm,Calm,-,N/A,,Scattered Clouds,0,2012-12-07 18:56:00
11:56 AM,57.0,48.0,72,30.12,10.0,NE,4.6,-,N/A,,Partly Cloudy,40,2012-12-07 19:56:00
12:56 PM,57.9,50.0,75,30.11,10.0,NNE,6.9,-,N/A,,Partly Cloudy,20,2012-12-07 20:56:00
1:56 PM,57.9,48.0,70,30.09,10.0,NNE,3.5,-,N/A,,Partly Cloudy,20,2012-12-07 21:56:00
2:56 PM,60.1,48.9,67,30.08,10.0,Calm,Calm,-,N/A,,Scattered Clouds,0,2012-12-07 22:56:00
3:56 PM,59.0,48.0,67,30.08,10.0,WNW,11.5,-,N/A,,Scattered Clouds,300,2012-12-07 23:56:00
4:56 PM,55.0,46.0,72,30.08,10.0,West,12.7,-,N/A,,Mostly Cloudy,280,2012-12-08 00:56:00
5:56 PM,54.0,45.0,72,30.08,10.0,West,11.5,-,N/A,,Scattered Clouds,280,2012-12-08 01:56:00
6:56 PM,53.1,46.0,77,30.08,10.0,West,12.7,-,N/A,,Partly Cloudy,280,2012-12-08 02:56:00
7:56 PM,53.1,46.9,80,30.08,10.0,West,11.5,-,N/A,,Partly Cloudy,280,2012-12-08 03:56:00
8:56 PM,52.0,46.9,83,30.09,10.0,West,9.2,-,N/A,,Partly Cloudy,280,2012-12-08 04:56:00
9:56 PM,52.0,46.9,83,30.09,10.0,West,8.1,-,N/A,,Partly Cloudy,270,2012-12-08 05:56:00
10:56 PM,53.1,46.9,80,30.09,10.0,West,10.4,-,N/A,,Partly Cloudy,280,2012-12-08 06:56:00
11:56 PM,52.0,46.0,80,30.09,10.0,West,5.8,-,N/A,,Clear,280,2012-12-08 07:56:00
12:56 AM,52.0,46.0,80,30.08,10.0,Calm,Calm,-,N/A,,Clear,0,2012-12-08 08:56:00
1:50 AM,46.4,42.8,87,30.08,10.0,SW,4.6,-,N/A,,Mostly Cloudy,220,2012-12-08 09:50:00
1:56 AM,46.9,43.0,86,30.08,10.0,WSW,4.6,-,N/A,,Mostly Cloudy,240,2012-12-08 09:56:00
2:56 AM,48.9,45.0,86,30.08,10.0,WNW,4.6,-,N/A,,Overcast,290,2012-12-08 10:56:00
3:45 AM,51.8,48.2,88,30.06,10.0,NNE,5.8,-,N/A,,Mostly Cloudy,30,2012-12-08 11:45:00
3:52 AM,51.8,48.2,88,30.07,10.0,NNE,5.8,-,N/A,,Mostly Cloudy,30,2012-12-08 11:52:00
3:56 AM,52.0,48.0,86,30.06,10.0,NNE,5.8,-,N/A,,Mostly Cloudy,30,2012-12-08 11:56:00
4:13 AM,51.8,48.2,88,30.06,10.0,NE,4.6,-,N/A,,Scattered Clouds,40,2012-12-08 12:13:00
4:50 AM,53.6,46.4,77,30.06,10.0,NE,5.8,-,N/A,,Mostly Cloudy,50,2012-12-08 12:50:00
4:56 AM,52.0,46.9,83,30.06,10.0,NNE,4.6,-,N/A,,Mostly Cloudy,20,2012-12-08 12:56:00
5:12 AM,51.8,46.4,82,30.06,10.0,NNE,5.8,-,N/A,,Overcast,20,2012-12-08 13:12:00
5:51 AM,51.8,46.4,82,30.06,10.0,East,3.5,-,N/A,,Mostly Cloudy,90,2012-12-08 13:51:00
5:56 AM,52.0,46.0,80,30.06,10.0,East,3.5,-,N/A,,Mostly Cloudy,90,2012-12-08 13:56:00
6:56 AM,50.0,46.0,86,30.07,10.0,ESE,4.6,-,N/A,,Mostly Cloudy,120,2012-12-08 14:56:00
7:38 AM,50.0,46.4,87,30.07,9.0,SE,3.5,-,N/A,,Scattered Clouds,140,2012-12-08 15:38:00
7:56 AM,50.0,46.9,89,30.07,9.0,SSE,4.6,-,N/A,,Scattered Clouds,150,2012-12-08 15:56:00
8:56 AM,52.0,45.0,77,30.09,9.0,NE,9.2,-,N/A,,Scattered Clouds,50,2012-12-08 16:56:00
9:56 AM,52.0,46.9,83,30.12,10.0,East,4.6,-,N/A,,Scattered Clouds,100,2012-12-08 17:56:00
10:56 AM,54.0,46.0,75,30.12,10.0,Calm,Calm,-,N/A,,Scattered Clouds,0,2012-12-08 18:56:00
11:56 AM,57.0,46.0,67,30.09,10.0,North,8.1,-,N/A,,Mostly Cloudy,10,2012-12-08 19:56:00
12:56 PM,55.9,46.9,72,30.07,10.0,North,4.6,-,N/A,,Mostly Cloudy,360,2012-12-08 20:56:00
1:56 PM,55.9,45.0,67,30.05,10.0,Calm,Calm,-,N/A,,Scattered Clouds,0,2012-12-08 21:56:00
2:56 PM,57.9,39.0,49,30.05,10.0,Calm,Calm,-,N/A,,Overcast,0,2012-12-08 22:56:00
3:56 PM,59.0,37.9,46,30.05,10.0,West,4.6,-,N/A,,Overcast,280,2012-12-08 23:56:00
4:56 PM,55.9,43.0,62,30.05,10.0,West,8.1,-,N/A,,Overcast,280,2012-12-09 00:56:00
5:56 PM,54.0,46.0,75,30.06,10.0,West,5.8,-,N/A,,Mostly Cloudy,280,2012-12-09 01:56:00
6:56 PM,54.0,46.0,75,30.06,10.0,West,4.6,-,N/A,,Scattered Clouds,270,2012-12-09 02:56:00
7:56 PM,52.0,43.0,71,30.07,10.0,South,4.6,-,N/A,,Partly Cloudy,180,2012-12-09 03:56:00
8:56 PM,51.1,43.0,74,30.08,10.0,West,4.6,-,N/A,,Partly Cloudy,280,2012-12-09 04:56:00
9:56 PM,51.1,41.0,68,30.08,10.0,Calm,Calm,-,N/A,,Partly Cloudy,0,2012-12-09 05:56:00
10:56 PM,50.0,42.1,74,30.09,10.0,Calm,Calm,-,N/A,,Clear,0,2012-12-09 06:56:00
11:56 PM,48.0,39.9,74,30.10,10.0,Calm,Calm,-,N/A,,Clear,0,2012-12-09 07:56:00
12:56 AM,48.0,42.1,80,30.10,10.0,SSW,4.6,-,N/A,,Clear,210,2012-12-09 08:56:00
1:56 AM,48.0,42.1,80,30.12,10.0,WSW,3.5,-,N/A,,Clear,250,2012-12-09 09:56:00
2:56 AM,48.0,43.0,83,30.11,10.0,Calm,Calm,-,N/A,,Clear,0,2012-12-09 10:56:00
3:56 AM,46.9,42.1,83,30.12,10.0,Calm,Calm,-,N/A,,Partly Cloudy,0,2012-12-09 11:56:00
4:56 AM,46.0,41.0,83,30.13,10.0,Calm,Calm,-,N/A,,Clear,0,2012-12-09 12:56:00
5:56 AM,46.9,42.1,83,30.14,10.0,South,3.5,-,N/A,,Clear,190,2012-12-09 13:56:00
6:56 AM,46.9,41.0,80,30.15,10.0,Calm,Calm,-,N/A,,Scattered Clouds,0,2012-12-09 14:56:00
7:56 AM,48.9,42.1,77,30.16,10.0,Calm,Calm,-,N/A,,Scattered Clouds,0,2012-12-09 15:56:00
8:56 AM,55.0,46.0,72,30.17,10.0,Calm,Calm,-,N/A,,Scattered Clouds,0,2012-12-09 16:56:00
9:56 AM,55.9,46.9,72,30.19,10.0,NE,4.6,-,N/A,,Partly Cloudy,50,2012-12-09 17:56:00
10:56 AM,57.0,46.0,67,30.18,10.0,Calm,Calm,-,N/A,,Partly Cloudy,0,2012-12-09 18:56:00
11:56 AM,62.1,39.9,44,30.16,10.0,Calm,Calm,-,N/A,,Partly Cloudy,0,2012-12-09 19:56:00
12:56 PM,61.0,37.9,42,30.12,10.0,Calm,Calm,-,N/A,,Mostly Cloudy,0,2012-12-09 20:56:00
1:56 PM,63.0,39.0,41,30.11,10.0,Calm,Calm,-,N/A,,Mostly Cloudy,0,2012-12-09 21:56:00
2:56 PM,63.0,42.1,46,30.11,10.0,East,3.5,-,N/A,,Mostly Cloudy,100,2012-12-09 22:56:00
3:56 PM,64.9,39.9,40,30.11,10.0,Calm,Calm,-,N/A,,Mostly Cloudy,0,2012-12-09 23:56:00
4:56 PM,64.0,39.0,40,30.12,10.0,Calm,Calm,-,N/A,,Partly Cloudy,0,2012-12-10 00:56:00
5:56 PM,60.1,44.1,55,30.13,10.0,SSE,4.6,-,N/A,,Partly Cloudy,150,2012-12-10 01:56:00
6:56 PM,60.1,42.1,51,30.15,10.0,SE,3.5,-,N/A,,Clear,130,2012-12-10 02:56:00
7:56 PM,57.0,45.0,64,30.15,10.0,SSW,5.8,-,N/A,,Clear,200,2012-12-10 03:56:00
8:56 PM,57.9,45.0,62,30.16,10.0,Calm,Calm,-,N/A,,Clear,0,2012-12-10 04:56:00
9:56 PM,54.0,43.0,66,30.17,10.0,Calm,Calm,-,N/A,,Clear,0,2012-12-10 05:56:00
10:56 PM,55.0,42.1,62,30.18,10.0,Calm,Calm,-,N/A,,Clear,0,2012-12-10 06:56:00
11:56 PM,57.9,42.1,56,30.18,10.0,East,9.2,-,N/A,,Clear,100,2012-12-10 07:56:00
12:56 AM,60.1,45.0,57,30.18,10.0,ENE,15.0,-,N/A,,Clear,60,2012-12-10 08:56:00
1:56 AM,60.1,46.0,60,30.19,10.0,East,13.8,-,N/A,,Clear,80,2012-12-10 09:56:00
2:56 AM,57.9,46.0,65,30.19,10.0,ESE,8.1,-,N/A,,Clear,110,2012-12-10 10:56:00
3:56 AM,57.9,45.0,62,30.19,10.0,East,9.2,-,N/A,,Clear,80,2012-12-10 11:56:00
4:56 AM,59.0,44.1,58,30.19,10.0,ENE,6.9,-,N/A,,Clear,70,2012-12-10 12:56:00
5:56 AM,59.0,46.0,62,30.20,10.0,ENE,6.9,-,N/A,,Clear,70,2012-12-10 13:56:00
6:56 AM,57.9,43.0,58,30.20,10.0,Calm,Calm,-,N/A,,Clear,0,2012-12-10 14:56:00
7:56 AM,60.1,42.1,51,30.21,10.0,East,12.7,-,N/A,,Clear,80,2012-12-10 15:56:00
8:56 AM,60.1,46.0,60,30.22,10.0,ENE,10.4,-,N/A,,Clear,60,2012-12-10 16:56:00
9:56 AM,61.0,46.9,60,30.23,10.0,East,11.5,-,N/A,,Partly Cloudy,80,2012-12-10 17:56:00
10:56 AM,62.1,46.9,58,30.22,10.0,ENE,10.4,-,N/A,,Partly Cloudy,70,2012-12-10 18:56:00
11:56 AM,62.1,48.9,62,30.20,10.0,East,5.8,-,N/A,,Partly Cloudy,90,2012-12-10 19:56:00
12:56 PM,64.9,46.0,50,30.17,10.0,Calm,Calm,-,N/A,,Clear,0,2012-12-10 20:56:00
1:56 PM,66.0,44.1,45,30.16,10.0,North,3.5,-,N/A,,Clear,10,2012-12-10 21:56:00
2:56 PM,64.9,45.0,48,30.14,10.0,Calm,Calm,-,N/A,,Partly Cloudy,0,2012-12-10 22:56:00
3:56 PM,66.0,44.1,45,30.13,10.0,Calm,Calm,-,N/A,,Partly Cloudy,0,2012-12-10 23:56:00
4:56 PM,61.0,46.9,60,30.13,10.0,WNW,9.2,-,N/A,,Partly Cloudy,290,2012-12-11 00:56:00
5:56 PM,57.9,46.0,65,30.12,10.0,West,9.2,-,N/A,,Partly Cloudy,280,2012-12-11 01:56:00
6:56 PM,57.9,46.0,65,30.13,10.0,Calm,Calm,-,N/A,,Clear,0,2012-12-11 02:56:00
7:56 PM,57.0,45.0,64,30.14,10.0,WNW,4.6,-,N/A,,Clear,300,2012-12-11 03:56:00
8:56 PM,55.0,46.0,72,30.13,10.0,Calm,Calm,-,N/A,,Clear,0,2012-12-11 04:56:00
9:56 PM,54.0,46.0,75,30.12,10.0,Calm,Calm,-,N/A,,Clear,0,2012-12-11 05:56:00
10:56 PM,54.0,45.0,72,30.12,10.0,Calm,Calm,-,N/A,,Clear,0,2012-12-11 06:56:00
11:56 PM,52.0,44.1,74,30.11,10.0,Calm,Calm,-,N/A,,Clear,0,2012-12-11 07:56:00
12:56 AM,51.1,44.1,77,30.10,10.0,Calm,Calm,-,N/A,,Clear,0,2012-12-11 08:56:00
1:56 AM,48.9,42.1,77,30.09,10.0,Calm,Calm,-,N/A,,Clear,0,2012-12-11 09:56:00
2:56 AM,46.9,41.0,80,30.08,10.0,Calm,Calm,-,N/A,,Clear,0,2012-12-11 10:56:00
3:56 AM,46.0,41.0,83,30.08,10.0,WSW,3.5,-,N/A,,Partly Cloudy,240,2012-12-11 11:56:00
4:56 AM,46.9,42.1,83,30.06,10.0,West,5.8,-,N/A,,Partly Cloudy,270,2012-12-11 12:56:00
5:56 AM,46.9,42.1,83,30.05,10.0,West,4.6,-,N/A,,Partly Cloudy,270,2012-12-11 13:56:00
6:56 AM,48.9,45.0,86,30.05,10.0,WNW,3.5,-,N/A,,Partly Cloudy,290,2012-12-11 14:56:00
7:43 AM,50.0,46.4,87,30.05,10.0,WNW,4.6,-,N/A,,Mostly Cloudy,290,2012-12-11 15:43:00
7:56 AM,51.1,48.0,89,30.05,9.0,West,4.6,-,N/A,,Mostly Cloudy,280,2012-12-11 15:56:00
8:47 AM,51.8,48.2,88,30.05,3.0,Calm,Calm,-,N/A,,Overcast,0,2012-12-11 16:47:00
8:50 AM,51.8,48.2,88,30.05,0.5,Calm,Calm,-,N/A,Fog,Fog,0,2012-12-11 16:50:00
8:56 AM,51.8,48.2,88,30.04,0.2,Calm,Calm,-,N/A,Fog,Fog,0,2012-12-11 16:56:00
9:56 AM,52.0,48.9,89,30.04,1.0,West,3.5,-,N/A,,Overcast,260,2012-12-11 17:56:00
10:06 AM,53.6,50.0,88,30.04,3.0,Calm,Calm,-,N/A,,Mostly Cloudy,0,2012-12-11 18:06:00
10:56 AM,55.9,50.0,80,30.02,5.0,Calm,Calm,-,N/A,,Haze,0,2012-12-11 18:56:00
11:56 AM,57.0,48.9,74,30.00,10.0,West,11.5,-,N/A,,Scattered Clouds,280,2012-12-11 19:56:00
12:56 PM,57.0,48.0,72,29.98,10.0,West,21.9,-,N/A,,Partly Cloudy,270,2012-12-11 20:56:00
1:16 PM,55.4,48.2,77,29.98,10.0,West,19.6,24.2,N/A,,Mostly Cloudy,280,2012-12-11 21:16:00
1:56 PM,54.0,46.9,77,29.96,10.0,WSW,15.0,-,N/A,,Mostly Cloudy,250,2012-12-11 21:56:00
2:56 PM,54.0,46.9,77,29.95,10.0,WSW,13.8,-,N/A,,Mostly Cloudy,240,2012-12-11 22:56:00
3:56 PM,54.0,46.0,75,29.94,10.0,WSW,10.4,-,N/A,,Overcast,250,2012-12-11 23:56:00
4:26 PM,53.6,46.4,77,29.93,10.0,WSW,9.2,-,N/A,,Mostly Cloudy,240,2012-12-12 00:26:00
4:56 PM,54.0,45.0,72,29.93,10.0,WSW,12.7,-,N/A,,Mostly Cloudy,240,2012-12-12 00:56:00
5:56 PM,54.0,45.0,72,29.91,10.0,SW,5.8,-,N/A,,Mostly Cloudy,230,2012-12-12 01:56:00
6:56 PM,54.0,44.1,69,29.90,10.0,WSW,9.2,-,N/A,,Mostly Cloudy,240,2012-12-12 02:56:00
7:56 PM,54.0,44.1,69,29.90,10.0,WSW,13.8,-,N/A,,Mostly Cloudy,250,2012-12-12 03:56:00
8:56 PM,54.0,44.1,69,29.90,10.0,WSW,10.4,-,N/A,,Mostly Cloudy,250,2012-12-12 04:56:00
9:30 PM,53.6,44.6,72,29.88,10.0,SSW,6.9,-,N/A,,Overcast,210,2012-12-12 05:30:00
9:56 PM,54.0,45.0,72,29.88,10.0,South,4.6,-,N/A,,Overcast,180,2012-12-12 05:56:00
10:33 PM,53.6,44.6,72,29.88,10.0,SSW,5.8,-,N/A,,Overcast,200,2012-12-12 06:33:00
10:56 PM,53.1,46.0,77,29.88,9.0,SW,4.6,-,0.00,Rain,Light Rain,230,2012-12-12 06:56:00
11:21 PM,53.6,46.4,77,29.88,10.0,SE,10.4,-,0.00,,Overcast,130,2012-12-12 07:21:00
11:56 PM,52.0,46.9,83,29.88,8.0,SE,11.5,-,0.00,Rain,Light Rain,140,2012-12-12 07:56:00
12:56 AM,53.1,48.9,86,29.87,8.0,SSE,8.1,-,0.03,Rain,Light Rain,160,2012-12-12 08:56:00
1:36 AM,51.8,48.2,88,29.85,5.0,SSE,8.1,-,N/A,Rain,Light Rain,160,2012-12-12 09:36:00
1:56 AM,52.0,48.0,86,29.85,7.0,SE,10.4,-,0.02,Rain,Light Rain,140,2012-12-12 09:56:00
2:56 AM,53.1,46.0,77,29.85,10.0,West,13.8,17.3,0.01,,Overcast,270,2012-12-12 10:56:00
3:41 AM,51.8,46.4,82,29.85,10.0,West,5.8,-,0.00,Rain,Light Rain,280,2012-12-12 11:41:00
3:56 AM,52.0,45.0,77,29.85,10.0,West,5.8,-,0.00,,Overcast,280,2012-12-12 11:56:00
4:56 AM,51.1,44.1,77,29.85,10.0,WNW,6.9,-,0.00,Rain,Light Rain,290,2012-12-12 12:56:00
5:31 AM,50.0,44.6,82,29.86,10.0,WNW,8.1,-,0.04,Rain,Light Rain,300,2012-12-12 13:31:00
5:56 AM,50.0,44.1,80,29.86,10.0,West,3.5,-,0.04,,Mostly Cloudy,280,2012-12-12 13:56:00
6:56 AM,50.0,42.1,74,29.87,10.0,WNW,5.8,-,0.00,Rain,Light Rain,300,2012-12-12 14:56:00
7:56 AM,50.0,43.0,77,29.88,10.0,West,3.5,-,0.00,,Mostly Cloudy,270,2012-12-12 15:56:00
8:56 AM,51.1,42.1,71,29.90,10.0,West,5.8,-,N/A,,Mostly Cloudy,280,2012-12-12 16:56:00
9:56 AM,50.0,41.0,71,29.91,10.0,WNW,8.1,24.2,0.00,Rain,Light Rain,300,2012-12-12 17:56:00
10:56 AM,54.0,41.0,62,29.91,10.0,West,10.4,-,0.00,,Partly Cloudy,260,2012-12-12 18:56:00
11:56 AM,55.0,41.0,59,29.90,10.0,West,13.8,-,N/A,,Mostly Cloudy,280,2012-12-12 19:56:00
12:56 PM,53.6,39.2,58,29.88,10.0,WSW,12.7,-,N/A,,Mostly Cloudy,250,2012-12-12 20:56:00
1:56 PM,54.0,37.0,53,29.87,10.0,West,15.0,-,N/A,,Scattered Clouds,260,2012-12-12 21:56:00
2:56 PM,54.0,39.0,57,29.87,10.0,West,12.7,-,N/A,,Mostly Cloudy,260,2012-12-12 22:56:00
3:56 PM,52.0,39.0,61,29.87,10.0,West,12.7,-,N/A,,Scattered Clouds,270,2012-12-12 23:56:00
4:56 PM,51.1,37.9,61,29.87,10.0,West,11.5,-,N/A,,Scattered Clouds,280,2012-12-13 00:56:00
5:56 PM,50.0,39.0,66,29.87,10.0,West,5.8,-,N/A,,Scattered Clouds,270,2012-12-13 01:56:00
6:56 PM,51.1,39.9,66,29.88,10.0,West,9.2,-,N/A,,Scattered Clouds,280,2012-12-13 02:56:00
7:56 PM,50.0,39.9,68,29.88,10.0,Calm,Calm,-,N/A,,Scattered Clouds,0,2012-12-13 03:56:00
8:56 PM,48.9,39.9,71,29.89,10.0,WNW,8.1,-,N/A,,Partly Cloudy,290,2012-12-13 04:56:00
9:56 PM,50.0,41.0,71,29.89,10.0,NW,5.8,-,N/A,,Partly Cloudy,310,2012-12-13 05:56:00
10:56 PM,48.0,39.0,71,29.90,10.0,West,4.6,-,N/A,,Partly Cloudy,280,2012-12-13 06:56:00
11:56 PM,46.0,37.9,73,29.91,10.0,WSW,3.5,-,N/A,,Partly Cloudy,250,2012-12-13 07:56:00
12:56 AM,46.4,39.2,76,29.90,10.0,NW,4.6,-,N/A,,Partly Cloudy,310,2012-12-13 08:56:00
1:56 AM,44.1,37.9,79,29.91,10.0,WSW,3.5,-,N/A,,Partly Cloudy,250,2012-12-13 09:56:00
2:56 AM,44.1,37.9,79,29.91,10.0,SW,3.5,-,N/A,,Partly Cloudy,220,2012-12-13 10:56:00
3:56 AM,42.1,37.9,85,29.90,10.0,SW,3.5,-,N/A,,Scattered Clouds,230,2012-12-13 11:56:00
4:18 AM,42.8,37.4,81,29.89,10.0,SW,3.5,-,N/A,,Mostly Cloudy,230,2012-12-13 12:18:00
4:34 AM,42.8,37.4,81,29.89,10.0,WSW,3.5,-,N/A,,Scattered Clouds,240,2012-12-13 12:34:00
4:56 AM,42.1,37.0,82,29.90,10.0,West,3.5,-,N/A,,Partly Cloudy,260,2012-12-13 12:56:00
5:56 AM,42.1,37.9,85,29.90,10.0,SSW,3.5,-,N/A,,Partly Cloudy,210,2012-12-13 13:56:00
6:56 AM,43.0,37.9,82,29.92,10.0,Calm,Calm,-,N/A,,Mostly Cloudy,0,2012-12-13 14:56:00
7:56 AM,48.0,37.9,68,29.93,10.0,ENE,10.4,-,N/A,,Mostly Cloudy,60,2012-12-13 15:56:00
8:56 AM,48.9,39.0,69,29.93,10.0,NE,6.9,-,N/A,,Partly Cloudy,40,2012-12-13 16:56:00
9:56 AM,50.0,39.0,66,29.94,10.0,NE,5.8,-,N/A,,Partly Cloudy,50,2012-12-13 17:56:00
10:56 AM,50.0,39.0,66,29.93,10.0,NE,4.6,-,N/A,,Scattered Clouds,50,2012-12-13 18:56:00
11:56 AM,52.0,39.9,63,29.90,10.0,Calm,Calm,-,N/A,,Scattered Clouds,0,2012-12-13 19:56:00
12:56 PM,53.1,39.0,59,29.88,10.0,North,5.8,-,N/A,,Scattered Clouds,360,2012-12-13 20:56:00
1:56 PM,54.0,37.9,55,29.87,10.0,North,6.9,-,N/A,,Partly Cloudy,10,2012-12-13 21:56:00
4:56 PM,51.1,36.0,56,29.87,10.0,WNW,9.2,-,N/A,,Partly Cloudy,290,2012-12-14 00:56:00
5:56 PM,50.0,37.0,61,29.87,10.0,West,5.8,-,N/A,,Partly Cloudy,280,2012-12-14 01:56:00
6:56 PM,48.9,37.0,64,29.88,10.0,WNW,5.8,-,N/A,,Partly Cloudy,290,2012-12-14 02:56:00
7:56 PM,48.0,37.0,66,29.87,10.0,WNW,6.9,-,N/A,,Clear,290,2012-12-14 03:56:00
8:56 PM,48.0,37.9,68,29.87,10.0,West,5.8,-,N/A,,Clear,270,2012-12-14 04:56:00
9:56 PM,48.0,37.9,68,29.88,10.0,Calm,Calm,-,N/A,,Clear,0,2012-12-14 05:56:00
10:56 PM,46.0,39.0,76,29.88,10.0,Calm,Calm,-,N/A,,Clear,0,2012-12-14 06:56:00
11:56 PM,46.0,39.9,79,29.87,10.0,SSW,4.6,-,N/A,,Clear,210,2012-12-14 07:56:00
12:56 AM,43.0,37.0,80,29.86,10.0,SSW,3.5,-,N/A,,Partly Cloudy,210,2012-12-14 08:56:00
1:56 AM,44.1,37.9,79,29.86,10.0,SSW,3.5,-,N/A,,Partly Cloudy,200,2012-12-14 09:56:00
2:56 AM,44.1,39.9,85,29.85,10.0,SSE,4.6,-,N/A,,Mostly Cloudy,150,2012-12-14 10:56:00
3:56 AM,45.0,39.9,82,29.83,10.0,SE,6.9,-,N/A,,Mostly Cloudy,140,2012-12-14 11:56:00
4:56 AM,45.0,39.0,80,29.83,10.0,SSE,4.6,-,N/A,,Mostly Cloudy,150,2012-12-14 12:56:00
5:56 AM,45.0,39.0,80,29.83,10.0,Calm,Calm,-,N/A,,Mostly Cloudy,0,2012-12-14 13:56:00
6:56 AM,46.9,39.9,77,29.84,10.0,ESE,5.8,-,N/A,,Mostly Cloudy,120,2012-12-14 14:56:00
7:56 AM,46.0,39.9,79,29.86,10.0,Calm,Calm,-,N/A,,Mostly Cloudy,0,2012-12-14 15:56:00
8:56 AM,48.0,41.0,77,29.88,10.0,Calm,Calm,-,N/A,,Overcast,0,2012-12-14 16:56:00
9:56 AM,50.0,42.8,76,29.89,10.0,NW,6.9,-,N/A,,Overcast,320,2012-12-14 17:56:00
10:56 AM,51.1,39.0,63,29.90,10.0,NW,4.6,-,N/A,,Overcast,310,2012-12-14 18:56:00
11:56 AM,52.0,39.9,63,29.90,10.0,North,4.6,-,N/A,,Overcast,350,2012-12-14 19:56:00
12:56 PM,52.0,39.0,61,29.89,10.0,North,9.2,-,N/A,,Overcast,10,2012-12-14 20:56:00
1:56 PM,53.1,39.0,59,29.89,10.0,North,5.8,-,N/A,,Overcast,360,2012-12-14 21:56:00
2:56 PM,53.1,39.0,59,29.92,10.0,North,4.6,-,N/A,,Overcast,10,2012-12-14 22:56:00
3:56 PM,52.0,41.0,66,29.95,10.0,NNW,5.8,-,N/A,,Overcast,340,2012-12-14 23:56:00
4:56 PM,51.1,39.9,66,29.96,10.0,NW,5.8,-,0.00,,Overcast,320,2012-12-15 00:56:00
5:24 PM,51.8,41.0,67,29.97,10.0,NNE,4.6,-,N/A,,Overcast,30,2012-12-15 01:24:00
5:56 PM,50.0,41.0,71,29.98,10.0,Calm,Calm,-,N/A,,Mostly Cloudy,0,2012-12-15 01:56:00
6:21 PM,50.0,41.0,71,29.98,10.0,West,3.5,-,N/A,,Mostly Cloudy,260,2012-12-15 02:21:00
6:56 PM,48.9,41.0,74,29.99,10.0,Calm,Calm,-,N/A,,Scattered Clouds,0,2012-12-15 02:56:00
7:56 PM,48.0,41.0,77,29.99,10.0,SSW,5.8,-,N/A,,Partly Cloudy,200,2012-12-15 03:56:00
8:56 PM,46.9,39.9,77,30.01,10.0,Calm,Calm,-,N/A,,Partly Cloudy,0,2012-12-15 04:56:00
9:56 PM,46.4,39.2,76,30.01,10.0,Calm,Calm,-,N/A,,Mostly Cloudy,0,2012-12-15 05:56:00
10:56 PM,45.0,37.9,76,30.03,10.0,Calm,Calm,-,N/A,,Scattered Clouds,0,2012-12-15 06:56:00
11:56 PM,44.1,39.0,82,30.03,10.0,West,4.6,-,N/A,,Partly Cloudy,270,2012-12-15 07:56:00
12:56 AM,44.1,39.0,82,30.04,10.0,Calm,Calm,-,N/A,,Partly Cloudy,0,2012-12-15 08:56:00
1:56 AM,42.1,37.9,85,30.06,10.0,South,3.5,-,N/A,,Partly Cloudy,190,2012-12-15 09:56:00
2:56 AM,42.1,37.9,85,30.04,10.0,Calm,Calm,-,N/A,,Partly Cloudy,0,2012-12-15 10:56:00
3:56 AM,41.0,37.0,86,30.04,10.0,West,3.5,-,N/A,,Clear,270,2012-12-15 11:56:00
4:56 AM,41.0,37.0,86,30.04,10.0,West,3.5,-,N/A,,Clear,270,2012-12-15 12:56:00
5:56 AM,41.0,37.0,86,30.04,10.0,South,3.5,-,N/A,,Scattered Clouds,180,2012-12-15 13:56:00
6:56 AM,42.1,37.9,85,30.04,10.0,Calm,Calm,-,N/A,,Mostly Cloudy,0,2012-12-15 14:56:00
7:56 AM,44.1,37.9,79,30.05,10.0,ESE,4.6,-,N/A,,Mostly Cloudy,110,2012-12-15 15:56:00
8:56 AM,46.0,39.9,79,30.08,10.0,East,3.5,-,N/A,,Overcast,100,2012-12-15 16:56:00
9:56 AM,46.0,39.0,76,30.09,10.0,Calm,Calm,-,N/A,,Overcast,0,2012-12-15 17:56:00
10:56 AM,46.9,39.0,74,30.08,10.0,SE,6.9,-,N/A,,Overcast,130,2012-12-15 18:56:00
11:56 AM,48.0,39.0,71,30.05,10.0,South,4.6,-,N/A,,Overcast,170,2012-12-15 19:56:00
12:56 PM,48.0,39.9,74,30.04,9.0,Calm,Calm,-,0.01,Rain,Light Rain,0,2012-12-15 20:56:00
1:56 PM,48.0,42.1,80,30.02,6.0,SE,11.5,-,0.04,Rain,Rain,130,2012-12-15 21:56:00
2:56 PM,48.0,44.1,86,30.01,8.0,SE,11.5,-,0.04,Rain,Light Rain,140,2012-12-15 22:56:00
3:56 PM,48.2,42.8,82,30.00,9.0,ESE,15.0,24.2,N/A,Rain,Light Rain,120,2012-12-15 23:56:00
4:56 PM,48.0,43.0,83,30.01,10.0,SE,16.1,25.3,0.01,Rain,Light Rain,130,2012-12-16 00:56:00
5:56 PM,48.0,43.0,83,30.01,10.0,ESE,11.5,-,0.00,,Overcast,120,2012-12-16 01:56:00
6:56 PM,48.0,42.1,80,30.01,10.0,ESE,15.0,-,N/A,,Overcast,120,2012-12-16 02:56:00
7:56 PM,48.0,41.0,77,30.00,10.0,ESE,13.8,-,N/A,,Overcast,120,2012-12-16 03:56:00
8:56 PM,48.0,39.9,74,30.01,10.0,SE,10.4,-,N/A,,Overcast,130,2012-12-16 04:56:00
9:56 PM,48.2,39.2,71,30.04,10.0,SE,5.8,-,N/A,,Overcast,130,2012-12-16 05:56:00
10:56 PM,48.0,41.0,77,30.05,10.0,Variable,4.6,-,N/A,,Overcast,0,2012-12-16 06:56:00
11:56 PM,48.0,42.1,80,30.06,10.0,Calm,Calm,-,N/A,,Overcast,0,2012-12-16 07:56:00
12:52 AM,48.2,41.0,76,30.05,10.0,ESE,6.9,-,N/A,,Overcast,120,2012-12-16 08:52:00
12:56 AM,48.2,41.0,76,30.04,10.0,ESE,6.9,-,N/A,,Overcast,120,2012-12-16 08:56:00
1:56 AM,48.9,41.0,74,30.07,10.0,SE,6.9,-,N/A,,Overcast,130,2012-12-16 09:56:00
2:56 AM,48.0,41.0,77,30.06,10.0,SE,8.1,-,N/A,,Overcast,130,2012-12-16 10:56:00
3:56 AM,48.0,41.0,77,30.05,10.0,SE,4.6,-,N/A,,Overcast,140,2012-12-16 11:56:00
4:56 AM,48.0,41.0,77,30.06,10.0,Calm,Calm,-,N/A,,Overcast,0,2012-12-16 12:56:00
5:56 AM,48.0,42.1,80,30.08,10.0,SW,3.5,-,N/A,,Overcast,230,2012-12-16 13:56:00
6:56 AM,46.9,42.1,83,30.08,10.0,Calm,Calm,-,N/A,,Mostly Cloudy,0,2012-12-16 14:56:00
7:43 AM,48.2,42.8,82,30.07,10.0,SSE,5.8,-,N/A,,Mostly Cloudy,150,2012-12-16 15:43:00
7:56 AM,48.0,42.1,80,30.08,10.0,South,3.5,-,N/A,,Mostly Cloudy,170,2012-12-16 15:56:00
8:56 AM,48.9,43.0,80,30.10,10.0,South,3.5,-,N/A,,Mostly Cloudy,170,2012-12-16 16:56:00
9:56 AM,50.0,43.0,77,30.11,10.0,Calm,Calm,-,N/A,,Overcast,0,2012-12-16 17:56:00
10:36 AM,51.8,42.8,71,30.11,10.0,ESE,3.5,-,N/A,,Overcast,110,2012-12-16 18:36:00
10:56 AM,51.1,44.1,77,30.11,10.0,East,4.6,-,N/A,,Overcast,80,2012-12-16 18:56:00
11:56 AM,52.0,44.1,74,30.09,10.0,ENE,3.5,-,N/A,,Overcast,70,2012-12-16 19:56:00
12:56 PM,53.1,45.0,74,30.07,10.0,East,4.6,-,N/A,,Overcast,90,2012-12-16 20:56:00
1:25 PM,53.6,44.6,72,30.07,9.0,Calm,Calm,-,N/A,,Overcast,0,2012-12-16 21:25:00
1:56 PM,53.1,48.9,86,30.05,3.0,ESE,6.9,-,N/A,,Overcast,120,2012-12-16 21:56:00
2:56 PM,54.0,48.9,83,30.04,10.0,East,4.6,-,N/A,,Overcast,100,2012-12-16 22:56:00
3:56 PM,54.0,48.0,80,30.04,10.0,Calm,Calm,-,N/A,,Overcast,0,2012-12-16 23:56:00
4:56 PM,55.0,51.1,86,30.04,9.0,SE,8.1,-,N/A,,Overcast,130,2012-12-17 00:56:00
5:56 PM,55.9,51.1,84,30.04,10.0,SSE,6.9,16.1,N/A,,Overcast,160,2012-12-17 01:56:00
6:56 PM,55.9,51.1,84,30.04,9.0,South,9.2,-,0.00,Rain,Light Rain,190,2012-12-17 02:56:00
7:56 PM,55.9,51.1,84,30.04,10.0,South,12.7,-,0.01,,Overcast,180,2012-12-17 03:56:00
8:56 PM,55.9,51.1,84,30.05,10.0,South,8.1,-,0.00,,Overcast,180,2012-12-17 04:56:00
9:56 PM,55.9,48.9,77,30.05,10.0,South,9.2,-,N/A,,Mostly Cloudy,170,2012-12-17 05:56:00
10:56 PM,55.9,48.9,77,30.04,10.0,SSE,11.5,-,N/A,,Mostly Cloudy,160,2012-12-17 06:56:00
11:56 PM,55.0,50.0,83,30.03,6.0,SSE,13.8,21.9,0.00,Rain,Light Rain,160,2012-12-17 07:56:00
12:56 AM,55.9,51.1,84,30.02,7.0,South,17.3,-,0.00,Rain,Light Rain,170,2012-12-17 08:56:00
1:56 AM,55.9,51.1,84,30.02,4.0,South,13.8,-,0.01,Rain,Light Rain,170,2012-12-17 09:56:00
2:56 AM,57.0,51.1,81,30.03,6.0,South,15.0,26.5,0.03,Rain,Light Rain,170,2012-12-17 10:56:00
3:56 AM,55.0,52.0,89,30.01,3.0,SSE,6.9,-,0.01,Rain,Light Rain,150,2012-12-17 11:56:00
4:56 AM,55.9,53.1,90,30.01,8.0,SSE,5.8,-,0.03,Rain,Light Rain,160,2012-12-17 12:56:00
5:56 AM,57.0,53.1,87,30.02,10.0,Variable,5.8,-,0.00,Rain,Light Rain,0,2012-12-17 13:56:00
6:56 AM,57.9,53.1,84,30.02,10.0,SSW,8.1,-,0.01,,Overcast,210,2012-12-17 14:56:00
7:56 AM,57.9,53.1,84,30.03,10.0,SSW,8.1,-,0.00,,Overcast,200,2012-12-17 15:56:00
8:12 AM,57.2,53.6,88,30.04,1.0,West,16.1,19.6,0.00,Rain,Light Rain,280,2012-12-17 16:12:00
8:31 AM,55.4,51.8,88,30.05,1.0,WNW,12.7,-,0.03,Rain,Light Rain,290,2012-12-17 16:31:00
8:56 AM,54.0,50.0,86,30.07,2.0,West,9.2,-,0.04,Rain,Light Rain,280,2012-12-17 16:56:00
9:56 AM,55.0,50.0,83,30.08,8.0,West,6.9,-,0.01,,Overcast,260,2012-12-17 17:56:00
10:56 AM,57.0,50.0,77,30.06,8.0,West,6.9,-,N/A,,Overcast,260,2012-12-17 18:56:00
11:56 AM,59.0,50.0,72,30.05,8.0,West,10.4,-,N/A,,Mostly Cloudy,270,2012-12-17 19:56:00
12:56 PM,57.9,48.9,72,30.03,7.0,WNW,16.1,-,0.00,Rain,Rain,290,2012-12-17 20:56:00
1:56 PM,57.0,48.9,74,30.01,9.0,West,15.0,-,0.01,,Overcast,280,2012-12-17 21:56:00
4:56 PM,54.0,45.0,72,29.99,10.0,West,15.0,-,N/A,,Mostly Cloudy,270,2012-12-18 00:56:00
5:56 PM,54.0,42.1,64,30.00,10.0,West,15.0,-,N/A,,Mostly Cloudy,270,2012-12-18 01:56:00
6:56 PM,52.0,41.0,66,30.01,10.0,West,13.8,-,N/A,,Scattered Clouds,280,2012-12-18 02:56:00
7:56 PM,52.0,41.0,66,30.01,10.0,West,11.5,-,N/A,,Scattered Clouds,280,2012-12-18 03:56:00
8:56 PM,52.0,41.0,66,30.01,10.0,West,9.2,-,N/A,,Scattered Clouds,280,2012-12-18 04:56:00
9:56 PM,51.1,39.9,66,30.01,10.0,West,16.1,-,N/A,,Partly Cloudy,280,2012-12-18 05:56:00
10:56 PM,50.0,41.0,71,30.01,10.0,WNW,15.0,-,N/A,,Partly Cloudy,290,2012-12-18 06:56:00
11:56 PM,50.0,39.0,66,30.01,10.0,WNW,12.7,-,N/A,,Partly Cloudy,290,2012-12-18 07:56:00
12:56 AM,48.9,37.9,66,30.01,10.0,WNW,9.2,-,N/A,,Partly Cloudy,290,2012-12-18 08:56:00
1:56 AM,48.9,35.1,59,30.01,10.0,NW,5.8,-,N/A,,Partly Cloudy,310,2012-12-18 09:56:00
2:56 AM,48.0,30.9,52,30.01,10.0,WNW,9.2,-,N/A,,Partly Cloudy,300,2012-12-18 10:56:00
3:56 AM,46.0,28.9,51,30.01,10.0,WNW,9.2,-,N/A,,Partly Cloudy,290,2012-12-18 11:56:00
4:56 AM,48.0,30.9,52,30.01,10.0,NW,10.4,-,N/A,,Partly Cloudy,310,2012-12-18 12:56:00
5:56 AM,46.9,28.9,50,30.03,10.0,NW,9.2,-,N/A,,Clear,310,2012-12-18 13:56:00
6:56 AM,46.9,28.9,50,30.05,10.0,NW,9.2,-,N/A,,Partly Cloudy,320,2012-12-18 14:56:00
7:56 AM,46.0,30.0,54,30.06,10.0,WNW,6.9,-,N/A,,Partly Cloudy,290,2012-12-18 15:56:00
8:56 AM,48.0,30.9,52,30.07,10.0,WNW,10.4,-,N/A,,Partly Cloudy,290,2012-12-18 16:56:00
9:56 AM,50.0,28.9,44,30.09,10.0,WNW,17.3,24.2,N/A,,Partly Cloudy,300,2012-12-18 17:56:00
10:56 AM,52.0,30.0,43,30.09,10.0,WNW,16.1,-,N/A,,Scattered Clouds,300,2012-12-18 18:56:00
11:56 AM,52.0,28.9,41,30.07,10.0,WNW,20.7,28.8,N/A,,Scattered Clouds,290,2012-12-18 19:56:00
12:56 PM,52.0,33.1,49,30.06,10.0,WNW,23.0,32.2,N/A,,Scattered Clouds,300,2012-12-18 20:56:00
1:56 PM,52.0,33.1,49,30.05,10.0,WNW,21.9,31.1,N/A,,Partly Cloudy,300,2012-12-18 21:56:00
2:56 PM,52.0,33.1,49,30.06,10.0,WNW,26.5,32.2,N/A,,Partly Cloudy,290,2012-12-18 22:56:00
3:56 PM,51.1,32.0,48,30.07,10.0,WNW,18.4,26.5,N/A,,Partly Cloudy,290,2012-12-18 23:56:00
4:56 PM,50.0,34.0,54,30.08,10.0,WNW,19.6,26.5,N/A,,Partly Cloudy,300,2012-12-19 00:56:00
5:56 PM,48.9,32.0,52,30.10,10.0,WNW,15.0,-,N/A,,Partly Cloudy,300,2012-12-19 01:56:00
6:56 PM,48.0,32.0,54,30.13,10.0,WNW,13.8,-,N/A,,Clear,300,2012-12-19 02:56:00
7:56 PM,46.0,30.0,54,30.15,10.0,West,11.5,-,N/A,,Clear,280,2012-12-19 03:56:00
8:56 PM,46.0,30.9,56,30.17,10.0,West,11.5,-,N/A,,Clear,270,2012-12-19 04:56:00
9:56 PM,46.0,30.0,54,30.18,10.0,NW,4.6,-,N/A,,Clear,310,2012-12-19 05:56:00
10:56 PM,44.1,28.0,53,30.19,10.0,WNW,6.9,-,N/A,,Clear,290,2012-12-19 06:56:00
11:56 PM,45.0,28.0,52,30.21,10.0,Calm,Calm,-,N/A,,Clear,0,2012-12-19 07:56:00
12:56 AM,45.0,25.0,46,30.21,10.0,Calm,Calm,-,N/A,,Clear,0,2012-12-19 08:56:00
1:56 AM,39.9,28.0,63,30.22,10.0,WNW,6.9,-,N/A,,Clear,290,2012-12-19 09:56:00
2:56 AM,39.0,28.0,65,30.23,10.0,West,4.6,-,N/A,,Clear,280,2012-12-19 10:56:00
3:56 AM,37.9,28.0,68,30.23,10.0,Calm,Calm,-,N/A,,Clear,0,2012-12-19 11:56:00
4:56 AM,37.9,28.0,68,30.25,10.0,Calm,Calm,-,N/A,,Clear,0,2012-12-19 12:56:00
5:56 AM,37.0,28.0,70,30.27,10.0,Calm,Calm,-,N/A,,Clear,0,2012-12-19 13:56:00
6:56 AM,37.0,28.0,70,30.29,10.0,Calm,Calm,-,N/A,,Clear,0,2012-12-19 14:56:00
7:56 AM,37.9,32.0,79,30.30,10.0,South,3.5,-,N/A,,Partly Cloudy,170,2012-12-19 15:56:00
8:56 AM,43.0,32.0,65,30.32,10.0,SSE,3.5,-,N/A,,Partly Cloudy,150,2012-12-19 16:56:00
9:56 AM,45.0,32.0,60,30.32,10.0,ESE,4.6,-,N/A,,Mostly Cloudy,120,2012-12-19 17:56:00
10:56 AM,48.0,33.1,56,30.32,10.0,Calm,Calm,-,N/A,,Scattered Clouds,0,2012-12-19 18:56:00
11:56 AM,48.0,34.0,58,30.31,10.0,ENE,5.8,-,N/A,,Partly Cloudy,70,2012-12-19 19:56:00
12:56 PM,48.9,33.1,54,30.29,10.0,ENE,3.5,-,N/A,,Partly Cloudy,60,2012-12-19 20:56:00
1:56 PM,50.0,28.0,43,30.28,10.0,East,4.6,-,N/A,,Partly Cloudy,80,2012-12-19 21:56:00
2:56 PM,51.1,28.9,43,30.27,10.0,East,3.5,-,N/A,,Partly Cloudy,90,2012-12-19 22:56:00
3:56 PM,50.0,27.0,41,30.25,10.0,ESE,3.5,-,N/A,,Partly Cloudy,110,2012-12-19 23:56:00
4:56 PM,50.0,18.0,28,30.25,10.0,SSE,3.5,-,N/A,,Partly Cloudy,150,2012-12-20 00:56:00
5:56 PM,48.0,27.0,44,30.24,10.0,South,5.8,-,N/A,,Clear,190,2012-12-20 01:56:00
6:56 PM,46.9,28.0,48,30.24,10.0,SSE,5.8,-,N/A,,Clear,150,2012-12-20 02:56:00
7:56 PM,46.0,28.0,50,30.24,10.0,SW,3.5,-,N/A,,Clear,230,2012-12-20 03:56:00
8:56 PM,46.0,28.9,51,30.24,10.0,Calm,Calm,-,N/A,,Clear,0,2012-12-20 04:56:00
9:56 PM,44.1,34.0,68,30.24,10.0,South,3.5,-,N/A,,Clear,170,2012-12-20 05:56:00
10:56 PM,44.1,32.0,63,30.24,10.0,SE,5.8,-,N/A,,Clear,140,2012-12-20 06:56:00
11:56 PM,43.0,30.9,62,30.23,10.0,SE,5.8,-,N/A,,Clear,130,2012-12-20 07:56:00
12:56 AM,42.1,33.1,70,30.22,10.0,SSE,3.5,-,N/A,,Clear,150,2012-12-20 08:56:00
1:56 AM,39.0,30.9,73,30.21,10.0,SSE,3.5,-,N/A,,Clear,150,2012-12-20 09:56:00
2:56 AM,41.0,33.1,73,30.20,10.0,ESE,8.1,-,N/A,,Clear,120,2012-12-20 10:56:00
3:56 AM,37.0,30.0,76,30.20,10.0,WNW,5.8,-,N/A,,Clear,290,2012-12-20 11:56:00
4:56 AM,39.9,30.0,68,30.19,10.0,ESE,3.5,-,N/A,,Partly Cloudy,120,2012-12-20 12:56:00
5:56 AM,39.9,33.1,77,30.19,10.0,ESE,3.5,-,N/A,,Partly Cloudy,120,2012-12-20 13:56:00
6:56 AM,39.0,33.1,79,30.19,10.0,Calm,Calm,-,N/A,,Partly Cloudy,0,2012-12-20 14:56:00
7:56 AM,42.1,32.0,67,30.19,10.0,SW,3.5,-,N/A,,Mostly Cloudy,220,2012-12-20 15:56:00
8:56 AM,46.9,34.0,61,30.18,10.0,SE,6.9,-,N/A,,Mostly Cloudy,140,2012-12-20 16:56:00
9:56 AM,51.1,35.1,54,30.17,10.0,ESE,15.0,-,N/A,,Mostly Cloudy,120,2012-12-20 17:56:00
10:56 AM,54.0,36.0,51,30.14,10.0,SE,13.8,-,N/A,,Scattered Clouds,130,2012-12-20 18:56:00
11:56 AM,57.9,37.9,47,30.09,10.0,SSE,15.0,23.0,N/A,,Mostly Cloudy,160,2012-12-20 19:56:00
12:56 PM,59.0,39.0,48,30.06,10.0,SSE,18.4,27.6,N/A,,Scattered Clouds,160,2012-12-20 20:56:00
1:56 PM,60.1,39.0,46,30.04,10.0,South,24.2,29.9,N/A,,Mostly Cloudy,180,2012-12-20 21:56:00
2:56 PM,59.0,37.9,46,30.02,10.0,South,23.0,35.7,N/A,,Mostly Cloudy,190,2012-12-20 22:56:00
3:56 PM,57.9,39.0,49,30.02,10.0,South,27.6,32.2,N/A,,Scattered Clouds,180,2012-12-20 23:56:00
4:56 PM,55.9,37.9,51,30.02,10.0,South,21.9,32.2,N/A,,Mostly Cloudy,190,2012-12-21 00:56:00
5:56 PM,55.0,37.9,53,30.02,10.0,South,18.4,-,N/A,,Mostly Cloudy,180,2012-12-21 01:56:00
6:56 PM,55.0,37.9,53,30.03,10.0,South,21.9,-,N/A,,Mostly Cloudy,180,2012-12-21 02:56:00
7:56 PM,55.0,39.0,55,30.03,10.0,South,16.1,25.3,N/A,,Mostly Cloudy,170,2012-12-21 03:56:00
8:56 PM,54.0,39.0,57,30.03,10.0,South,19.6,-,N/A,,Partly Cloudy,180,2012-12-21 04:56:00
9:56 PM,54.0,39.9,59,30.02,10.0,South,13.8,-,N/A,,Scattered Clouds,180,2012-12-21 05:56:00
10:56 PM,53.1,39.9,61,30.02,10.0,SSE,13.8,-,N/A,,Scattered Clouds,160,2012-12-21 06:56:00
11:56 PM,53.1,41.0,64,30.00,10.0,SE,15.0,-,N/A,,Mostly Cloudy,140,2012-12-21 07:56:00
12:56 AM,54.0,42.1,64,29.99,10.0,SE,15.0,-,N/A,,Mostly Cloudy,130,2012-12-21 08:56:00
1:56 AM,53.1,43.0,69,29.97,10.0,SE,12.7,-,N/A,,Overcast,130,2012-12-21 09:56:00
2:56 AM,54.0,42.1,64,29.96,10.0,ESE,17.3,-,N/A,,Overcast,120,2012-12-21 10:56:00
3:56 AM,53.1,41.0,64,29.94,10.0,ESE,15.0,-,N/A,,Overcast,110,2012-12-21 11:56:00
4:56 AM,54.0,41.0,62,29.93,10.0,ESE,19.6,-,N/A,,Overcast,110,2012-12-21 12:56:00
5:56 AM,54.0,42.1,64,29.93,10.0,ESE,15.0,-,N/A,,Overcast,110,2012-12-21 13:56:00
6:56 AM,54.0,41.0,62,29.93,10.0,SE,13.8,-,N/A,,Overcast,130,2012-12-21 14:56:00
7:56 AM,54.0,42.1,64,29.91,10.0,ESE,23.0,28.8,N/A,,Overcast,120,2012-12-21 15:56:00
8:56 AM,55.0,39.9,57,29.92,10.0,SE,15.0,-,N/A,,Overcast,140,2012-12-21 16:56:00
9:56 AM,54.0,41.0,62,29.93,10.0,SE,18.4,24.2,0.00,Rain,Light Rain,140,2012-12-21 17:56:00
10:56 AM,53.1,46.9,80,29.92,10.0,SE,18.4,-,0.07,Rain,Light Rain,140,2012-12-21 18:56:00
11:56 AM,53.1,46.9,80,29.92,10.0,SE,18.4,-,0.04,Rain,Light Rain,130,2012-12-21 19:56:00
12:49 PM,57.2,50.0,77,29.89,8.0,South,23.0,29.9,0.00,Rain,Light Rain,180,2012-12-21 20:49:00
12:56 PM,55.9,50.0,80,29.89,5.0,South,20.7,35.7,0.00,Rain,Light Rain,180,2012-12-21 20:56:00
1:56 PM,57.0,50.0,77,29.87,9.0,South,17.3,-,0.01,Rain,Light Rain,170,2012-12-21 21:56:00
2:28 PM,57.2,50.0,77,29.87,8.0,South,26.5,38.0,0.00,Rain,Light Rain,170,2012-12-21 22:28:00
2:56 PM,57.0,48.9,74,29.86,9.0,South,29.9,42.6,0.00,Rain,Light Rain,180,2012-12-21 22:56:00
3:29 PM,57.2,50.0,77,29.87,5.0,South,20.7,36.8,0.00,Rain,Light Rain,180,2012-12-21 23:29:00
3:56 PM,55.9,50.0,80,29.88,3.0,South,25.3,38.0,0.00,,Haze,180,2012-12-21 23:56:00
4:27 PM,55.4,50.0,82,29.89,3.0,South,19.6,34.5,0.01,,Haze,180,2012-12-22 00:27:00
4:49 PM,55.4,48.2,77,29.90,2.5,South,20.7,33.4,0.02,,Haze,190,2012-12-22 00:49:00
4:56 PM,55.0,48.9,80,29.90,5.0,South,21.9,28.8,0.03,,Haze,180,2012-12-22 00:56:00
5:56 PM,55.0,48.9,80,29.91,10.0,ESE,8.1,-,N/A,,Overcast,110,2012-12-22 01:56:00
6:56 PM,55.0,48.9,80,29.91,10.0,ESE,11.5,-,N/A,,Mostly Cloudy,110,2012-12-22 02:56:00
7:56 PM,55.0,50.0,83,29.91,5.0,SSE,10.4,-,0.00,Rain,Light Rain,160,2012-12-22 03:56:00
8:56 PM,55.0,50.0,83,29.91,8.0,South,18.4,-,0.09,Rain,Light Rain,170,2012-12-22 04:56:00
9:08 PM,55.4,50.0,82,29.90,5.0,South,19.6,-,0.00,Rain,Light Rain,180,2012-12-22 05:08:00
9:56 PM,54.0,52.0,93,29.90,10.0,SSE,5.8,-,0.05,Rain,Light Rain,160,2012-12-22 05:56:00
10:08 PM,55.4,51.8,88,29.90,9.0,SE,10.4,20.7,0.00,Rain,Light Rain,130,2012-12-22 06:08:00
10:26 PM,53.6,50.0,88,29.89,6.0,SE,6.9,-,0.02,Rain,Rain,130,2012-12-22 06:26:00
10:56 PM,54.0,48.9,83,29.88,10.0,SE,12.7,-,0.03,,Overcast,130,2012-12-22 06:56:00
11:10 PM,53.6,48.2,82,29.87,10.0,SE,12.7,-,0.00,Rain,Light Rain,130,2012-12-22 07:10:00
11:56 PM,57.0,48.9,74,29.86,10.0,South,20.7,32.2,0.00,,Scattered Clouds,170,2012-12-22 07:56:00
12:56 AM,57.0,48.9,74,29.86,10.0,South,21.9,34.5,0.00,,Mostly Cloudy,190,2012-12-22 08:56:00
1:56 AM,57.0,48.9,74,29.86,10.0,South,25.3,32.2,0.02,,Overcast,190,2012-12-22 09:56:00
2:56 AM,57.9,48.9,72,29.85,10.0,South,28.8,36.8,0.00,,Overcast,180,2012-12-22 10:56:00
3:56 AM,55.9,48.0,75,29.84,4.0,South,24.2,36.8,0.04,Rain,Heavy Rain,180,2012-12-22 11:56:00
4:56 AM,55.0,51.1,86,29.85,8.0,South,20.7,33.4,0.11,Rain,Rain,180,2012-12-22 12:56:00
5:16 AM,53.6,51.8,94,29.85,4.0,SSW,20.7,29.9,0.07,Rain,Heavy Rain,200,2012-12-22 13:16:00
5:32 AM,53.6,50.0,88,29.86,4.0,SW,21.9,31.1,0.12,Rain,Heavy Rain,220,2012-12-22 13:32:00
5:56 AM,54.0,50.0,86,29.87,6.0,SW,18.4,29.9,0.18,Rain,Rain,220,2012-12-22 13:56:00
6:56 AM,50.0,46.9,89,29.90,6.0,SW,16.1,-,0.12,Rain,Light Rain,230,2012-12-22 14:56:00
7:56 AM,51.1,48.0,89,29.91,9.0,SW,6.9,-,0.01,Rain,Light Rain,220,2012-12-22 15:56:00
8:56 AM,52.0,50.0,93,29.93,9.0,SSW,6.9,-,0.01,Rain,Light Rain,210,2012-12-22 16:56:00
9:56 AM,54.0,51.1,90,29.96,10.0,SSW,11.5,-,0.00,Rain,Light Rain,210,2012-12-22 17:56:00
10:56 AM,55.9,46.9,72,29.97,10.0,WSW,9.2,-,0.00,,Mostly Cloudy,240,2012-12-22 18:56:00
11:56 AM,57.0,45.0,64,29.96,10.0,SSW,17.3,24.2,0.00,,Scattered Clouds,210,2012-12-22 19:56:00
12:56 PM,57.9,44.1,60,29.96,10.0,SSW,15.0,23.0,N/A,,Mostly Cloudy,210,2012-12-22 20:56:00
1:56 PM,57.0,45.0,64,29.96,10.0,SSW,18.4,-,N/A,,Mostly Cloudy,200,2012-12-22 21:56:00
2:56 PM,55.9,46.0,69,29.96,9.0,SSW,17.3,-,0.00,Rain,Light Rain,200,2012-12-22 22:56:00
3:43 PM,51.8,44.6,76,29.98,4.0,WSW,19.6,28.8,0.03,Rain,Heavy Rain,250,2012-12-22 23:43:00
3:56 PM,53.1,45.0,74,29.99,6.0,West,17.3,-,0.05,Rain,Light Rain,260,2012-12-22 23:56:00
4:56 PM,54.0,45.0,72,29.99,10.0,SW,5.8,-,0.03,,Mostly Cloudy,220,2012-12-23 00:56:00
5:56 PM,55.9,46.0,69,30.00,10.0,SSW,11.5,-,N/A,,Mostly Cloudy,210,2012-12-23 01:56:00
6:56 PM,55.9,46.0,69,30.02,10.0,SSW,11.5,-,N/A,,Mostly Cloudy,200,2012-12-23 02:56:00
7:56 PM,55.0,46.0,72,30.04,10.0,SSW,10.4,-,N/A,,Mostly Cloudy,200,2012-12-23 03:56:00
8:56 PM,55.0,46.0,72,30.05,10.0,South,15.0,-,0.00,,Overcast,170,2012-12-23 04:56:00
9:56 PM,54.0,45.0,72,30.07,10.0,South,8.1,-,N/A,,Mostly Cloudy,170,2012-12-23 05:56:00
10:56 PM,53.1,46.0,77,30.08,10.0,South,10.4,-,0.00,Rain,Light Rain,170,2012-12-23 06:56:00
11:56 PM,54.0,46.9,77,30.08,10.0,South,12.7,27.6,0.00,Rain,Light Rain,190,2012-12-23 07:56:00
12:56 AM,55.0,46.0,72,30.07,10.0,South,11.5,-,0.00,,Mostly Cloudy,180,2012-12-23 08:56:00
1:56 AM,55.0,46.9,74,30.06,10.0,South,12.7,-,N/A,,Scattered Clouds,170,2012-12-23 09:56:00
2:56 AM,53.1,46.0,77,30.05,10.0,ESE,8.1,-,N/A,,Mostly Cloudy,120,2012-12-23 10:56:00
3:56 AM,54.0,45.0,72,30.02,10.0,SSE,16.1,-,0.00,Rain,Light Rain,150,2012-12-23 11:56:00
4:56 AM,52.0,46.0,80,30.02,8.0,SE,10.4,-,0.02,Rain,Light Rain,140,2012-12-23 12:56:00
5:56 AM,52.0,46.0,80,30.01,10.0,SE,11.5,-,0.02,Rain,Light Rain,130,2012-12-23 13:56:00
6:38 AM,51.8,46.4,82,29.98,9.0,SE,15.0,-,0.02,Rain,Light Rain,140,2012-12-23 14:38:00
6:56 AM,52.0,46.0,80,29.99,9.0,SE,16.1,-,0.04,Rain,Rain,140,2012-12-23 14:56:00
7:56 AM,55.0,50.0,83,29.96,6.0,South,27.6,35.7,0.11,Rain,Light Rain,170,2012-12-23 15:56:00
8:38 AM,55.4,51.8,88,29.95,2.0,South,27.6,43.7,0.05,Rain,Heavy Rain,170,2012-12-23 16:38:00
8:56 AM,55.0,52.0,89,29.95,3.0,South,29.9,38.0,0.08,Rain,Rain,170,2012-12-23 16:56:00
9:56 AM,55.9,53.1,90,29.95,1.8,South,29.9,46.0,0.07,Rain,Light Rain,170,2012-12-23 17:56:00
10:37 AM,55.4,55.4,100,29.95,2.5,South,29.9,46.0,0.05,,Overcast,170,2012-12-23 18:37:00
10:56 AM,55.9,55.0,97,29.94,2.0,South,29.9,47.2,0.07,,Overcast,170,2012-12-23 18:56:00
11:52 AM,55.4,55.4,100,29.90,1.5,South,28.8,43.7,0.15,Rain,Heavy Rain,170,2012-12-23 19:52:00
11:56 AM,57.0,55.9,96,29.90,1.5,South,27.6,43.7,0.18,Rain,Heavy Rain,170,2012-12-23 19:56:00
12:56 PM,57.0,55.9,96,29.91,1.5,SSW,24.2,35.7,0.09,Rain,Light Rain,210,2012-12-23 20:56:00
1:14 PM,57.2,57.2,100,29.89,2.0,SSW,19.6,31.1,0.05,Rain,Light Rain,210,2012-12-23 21:14:00
1:24 PM,57.2,57.2,100,29.88,2.0,South,19.6,27.6,0.08,Rain,Light Rain,190,2012-12-23 21:24:00
1:56 PM,57.9,55.9,93,29.88,5.0,SW,19.6,36.8,0.22,Rain,Heavy Rain,230,2012-12-23 21:56:00
2:56 PM,57.9,55.6,92,29.88,10.0,SW,16.1,-,0.02,,Mostly Cloudy,220,2012-12-23 22:56:00
3:30 PM,57.2,55.4,94,29.86,2.0,South,13.8,-,0.07,Rain,Rain,190,2012-12-23 23:30:00
3:56 PM,57.9,55.9,93,29.87,2.0,SW,9.2,-,0.17,Rain,Rain,230,2012-12-23 23:56:00
4:17 PM,57.2,55.4,94,29.86,3.0,SSW,10.4,19.6,0.19,Rain,Light Rain,210,2012-12-24 00:17:00
4:56 PM,59.0,55.0,87,29.86,6.0,SW,16.1,-,0.26,Rain,Light Rain,230,2012-12-24 00:56:00
5:18 PM,59.0,53.6,82,29.88,10.0,West,13.8,-,0.00,,Overcast,260,2012-12-24 01:18:00
5:46 PM,55.4,51.8,88,29.88,9.0,West,11.5,-,0.00,,Overcast,280,2012-12-24 01:46:00
5:56 PM,55.0,52.2,90,29.88,10.0,West,8.1,-,0.00,,Overcast,270,2012-12-24 01:56:00
6:26 PM,55.4,51.8,88,29.90,10.0,WNW,5.8,-,N/A,,Overcast,290,2012-12-24 02:26:00
6:56 PM,55.0,51.3,87,29.91,10.0,WNW,10.4,-,N/A,,Overcast,290,2012-12-24 02:56:00
7:56 PM,54.0,48.9,83,29.94,10.0,WNW,6.9,-,N/A,,Mostly Cloudy,300,2012-12-24 03:56:00
8:41 PM,53.6,46.4,77,29.95,10.0,WNW,9.2,-,N/A,,Scattered Clouds,290,2012-12-24 04:41:00
8:56 PM,53.1,46.9,80,29.96,10.0,WNW,11.5,-,N/A,,Scattered Clouds,290,2012-12-24 04:56:00
9:56 PM,52.0,46.9,83,29.98,10.0,West,8.1,-,N/A,,Scattered Clouds,280,2012-12-24 05:56:00
10:56 PM,52.0,46.0,80,30.01,10.0,West,12.7,-,N/A,,Partly Cloudy,260,2012-12-24 06:56:00
11:56 PM,52.0,45.0,77,30.03,10.0,West,12.7,-,N/A,,Partly Cloudy,270,2012-12-24 07:56:00
12:56 AM,52.0,45.0,77,30.05,10.0,West,9.2,-,N/A,,Partly Cloudy,260,2012-12-24 08:56:00
1:56 AM,51.1,44.1,77,30.07,10.0,West,8.1,-,N/A,,Scattered Clouds,270,2012-12-24 09:56:00
2:56 AM,52.0,45.0,77,30.09,10.0,NNW,5.8,-,N/A,,Partly Cloudy,340,2012-12-24 10:56:00
3:56 AM,50.0,45.0,83,30.09,10.0,West,3.5,-,N/A,,Partly Cloudy,270,2012-12-24 11:56:00
4:56 AM,46.9,44.1,90,30.10,10.0,West,8.1,-,0.00,,Scattered Clouds,270,2012-12-24 12:56:00
5:56 AM,46.9,43.0,86,30.14,10.0,West,8.1,-,N/A,,Mostly Cloudy,270,2012-12-24 13:56:00
6:56 AM,48.0,43.0,83,30.17,10.0,WNW,3.5,-,N/A,,Scattered Clouds,290,2012-12-24 14:56:00
7:56 AM,48.9,43.0,80,30.18,10.0,Calm,Calm,-,N/A,,Mostly Cloudy,0,2012-12-24 15:56:00
8:56 AM,51.1,45.0,80,30.19,10.0,South,3.5,-,N/A,,Scattered Clouds,170,2012-12-24 16:56:00
9:56 AM,51.1,45.0,80,30.22,10.0,NE,5.8,-,N/A,,Scattered Clouds,50,2012-12-24 17:56:00
10:56 AM,53.1,45.0,74,30.20,10.0,NE,3.5,-,N/A,,Scattered Clouds,50,2012-12-24 18:56:00
11:56 AM,54.0,44.1,69,30.19,10.0,Calm,Calm,-,N/A,,Scattered Clouds,0,2012-12-24 19:56:00
12:56 PM,55.0,43.0,64,30.18,10.0,North,4.6,-,N/A,,Scattered Clouds,10,2012-12-24 20:56:00
1:56 PM,55.9,45.0,67,30.17,10.0,NE,3.5,-,N/A,,Mostly Cloudy,40,2012-12-24 21:56:00
2:56 PM,55.9,41.0,57,30.16,10.0,NNW,5.8,-,N/A,,Mostly Cloudy,340,2012-12-24 22:56:00
3:56 PM,55.0,42.1,62,30.17,10.0,North,5.8,-,N/A,,Mostly Cloudy,360,2012-12-24 23:56:00
4:56 PM,54.0,39.9,59,30.17,10.0,NNW,6.9,-,N/A,,Mostly Cloudy,330,2012-12-25 00:56:00
5:56 PM,51.1,41.0,68,30.16,10.0,WNW,5.8,-,N/A,,Scattered Clouds,300,2012-12-25 01:56:00
6:56 PM,52.0,41.0,66,30.17,10.0,Calm,Calm,-,N/A,,Mostly Cloudy,0,2012-12-25 02:56:00
7:56 PM,53.1,37.9,57,30.16,10.0,NE,5.8,-,N/A,,Mostly Cloudy,40,2012-12-25 03:56:00
8:56 PM,51.1,39.9,66,30.17,10.0,ESE,3.5,-,N/A,,Mostly Cloudy,120,2012-12-25 04:56:00
9:56 PM,51.1,37.0,59,30.17,10.0,ENE,4.6,-,N/A,,Scattered Clouds,60,2012-12-25 05:56:00
10:56 PM,46.9,41.0,80,30.17,10.0,South,3.5,-,N/A,,Mostly Cloudy,170,2012-12-25 06:56:00
11:56 PM,46.0,39.9,79,30.15,10.0,SSE,3.5,-,N/A,,Mostly Cloudy,150,2012-12-25 07:56:00
12:56 AM,46.0,39.0,76,30.15,10.0,Calm,Calm,-,N/A,,Scattered Clouds,0,2012-12-25 08:56:00
1:56 AM,45.0,37.9,76,30.14,10.0,Calm,Calm,-,N/A,,Mostly Cloudy,0,2012-12-25 09:56:00
2:56 AM,46.9,39.0,74,30.13,10.0,SE,6.9,-,N/A,,Mostly Cloudy,130,2012-12-25 10:56:00
3:56 AM,46.0,39.9,79,30.09,10.0,SSE,5.8,-,N/A,,Mostly Cloudy,150,2012-12-25 11:56:00
4:56 AM,46.0,37.9,73,30.07,10.0,Calm,Calm,-,N/A,,Mostly Cloudy,0,2012-12-25 12:56:00
5:56 AM,45.0,39.0,80,30.10,10.0,West,6.9,-,N/A,,Overcast,280,2012-12-25 13:56:00
6:56 AM,46.9,39.0,74,30.11,10.0,Calm,Calm,-,N/A,,Overcast,0,2012-12-25 14:56:00
7:56 AM,46.9,39.0,74,30.10,10.0,Calm,Calm,-,N/A,,Overcast,0,2012-12-25 15:56:00
8:56 AM,46.9,39.9,77,30.11,10.0,SSE,5.8,-,0.02,Rain,Light Rain,150,2012-12-25 16:56:00
9:56 AM,46.9,41.0,80,30.09,10.0,SE,10.4,-,0.02,,Overcast,130,2012-12-25 17:56:00
10:56 AM,46.9,39.9,77,30.04,10.0,SE,9.2,-,N/A,,Overcast,140,2012-12-25 18:56:00
11:56 AM,48.0,39.9,74,30.01,10.0,SE,8.1,-,0.00,Rain,Light Rain,130,2012-12-25 19:56:00
12:56 PM,48.9,41.0,74,29.96,10.0,ENE,5.8,-,0.03,Rain,Light Rain,60,2012-12-25 20:56:00
1:56 PM,48.9,42.1,77,29.94,10.0,NNE,6.9,-,0.02,Rain,Light Rain,30,2012-12-25 21:56:00
2:56 PM,48.9,44.1,83,29.89,7.0,Calm,Calm,-,0.07,Rain,Light Rain,0,2012-12-25 22:56:00
3:31 PM,48.2,42.8,82,29.87,10.0,SW,4.6,-,N/A,,Overcast,220,2012-12-25 23:31:00
3:54 PM,50.0,44.6,82,29.86,10.0,West,6.9,-,0.01,Rain,Light Rain,260,2012-12-25 23:54:00
3:56 PM,50.0,44.1,80,29.86,10.0,West,6.9,-,0.01,Rain,Light Rain,260,2012-12-25 23:56:00
4:56 PM,50.0,45.0,83,29.84,5.0,ENE,9.2,-,0.24,Rain,Heavy Rain,60,2012-12-26 00:56:00
6:56 PM,52.0,46.9,83,29.79,9.0,SE,11.5,-,0.03,Rain,Rain,140,2012-12-26 02:56:00
7:56 PM,54.0,48.0,80,29.81,6.0,WSW,15.0,24.2,0.25,Rain,Rain,250,2012-12-26 03:56:00
8:19 PM,53.6,46.4,77,29.82,10.0,WSW,16.1,-,0.03,,Mostly Cloudy,240,2012-12-26 04:19:00
8:56 PM,54.0,46.9,77,29.83,10.0,WSW,15.0,24.2,0.03,,Mostly Cloudy,250,2012-12-26 04:56:00
9:37 PM,53.6,44.6,72,29.85,8.0,West,25.3,35.7,0.00,Rain,Light Rain,260,2012-12-26 05:37:00
9:51 PM,51.8,44.6,76,29.85,10.0,WSW,12.7,23.0,0.00,Rain,Light Rain,250,2012-12-26 05:51:00
9:56 PM,52.0,46.0,80,29.85,10.0,West,11.5,-,0.00,Rain,Light Rain,270,2012-12-26 05:56:00
10:56 PM,53.1,45.0,74,29.87,10.0,West,9.2,-,0.00,,Mostly Cloudy,270,2012-12-26 06:56:00
11:56 PM,52.0,43.0,71,29.88,10.0,West,10.4,-,N/A,,Scattered Clouds,270,2012-12-26 07:56:00
12:56 AM,51.8,44.6,76,29.89,10.0,West,11.5,-,N/A,Rain,Light Rain,270,2012-12-26 08:56:00
1:56 AM,51.1,43.0,74,29.90,10.0,West,13.8,-,0.00,,Scattered Clouds,280,2012-12-26 09:56:00
2:56 AM,51.8,42.8,71,29.90,10.0,WNW,11.5,-,N/A,,Mostly Cloudy,290,2012-12-26 10:56:00
3:56 AM,50.0,42.8,76,29.90,10.0,West,11.5,-,N/A,,Mostly Cloudy,280,2012-12-26 11:56:00
4:56 AM,51.1,41.0,68,29.90,10.0,West,12.7,-,N/A,,Mostly Cloudy,260,2012-12-26 12:56:00
5:56 AM,48.9,43.0,80,29.92,9.0,WNW,5.8,-,0.03,Rain,Light Rain,300,2012-12-26 13:56:00
6:56 AM,48.9,42.1,77,29.94,10.0,West,4.6,-,0.03,,Scattered Clouds,260,2012-12-26 14:56:00
7:56 AM,50.0,43.0,77,29.96,10.0,West,6.9,-,N/A,,Mostly Cloudy,270,2012-12-26 15:56:00
8:13 AM,51.8,42.8,71,29.96,4.0,WNW,6.9,-,0.00,Rain,Light Rain,300,2012-12-26 16:13:00
8:56 AM,50.0,44.1,80,29.98,9.0,West,5.8,-,0.09,,Mostly Cloudy,280,2012-12-26 16:56:00
9:56 AM,51.1,44.1,77,30.01,8.0,WNW,16.1,-,0.01,Rain,Light Rain,290,2012-12-26 17:56:00
10:56 AM,51.1,46.0,83,30.01,3.0,WNW,16.1,28.8,0.01,Rain,Light Rain,300,2012-12-26 18:56:00
11:02 AM,50.0,46.4,87,30.01,8.0,WNW,9.2,-,0.00,Rain,Light Rain,290,2012-12-26 19:02:00
11:56 AM,51.1,46.9,86,30.00,9.0,West,15.0,-,0.01,Rain,Light Rain,270,2012-12-26 19:56:00
12:56 PM,54.0,48.9,83,30.00,10.0,WNW,18.4,28.8,0.00,,Mostly Cloudy,290,2012-12-26 20:56:00
1:56 PM,54.0,43.0,66,29.99,10.0,West,25.3,33.4,N/A,,Mostly Cloudy,280,2012-12-26 21:56:00
2:56 PM,54.0,43.0,66,30.00,10.0,West,23.0,34.5,N/A,,Mostly Cloudy,280,2012-12-26 22:56:00
3:56 PM,53.1,42.1,66,30.03,10.0,WNW,16.1,27.6,N/A,,Mostly Cloudy,290,2012-12-26 23:56:00
4:56 PM,52.0,42.1,69,30.04,10.0,WNW,18.4,24.2,N/A,,Mostly Cloudy,290,2012-12-27 00:56:00
5:56 PM,52.0,42.1,69,30.05,10.0,WNW,23.0,29.9,N/A,,Scattered Clouds,290,2012-12-27 01:56:00
6:56 PM,51.1,43.0,74,30.05,10.0,West,13.8,-,N/A,,Scattered Clouds,280,2012-12-27 02:56:00
7:56 PM,51.1,42.1,71,30.06,10.0,WNW,16.1,23.0,N/A,,Mostly Cloudy,300,2012-12-27 03:56:00
8:56 PM,50.0,41.0,71,30.07,10.0,WNW,15.0,21.9,N/A,,Scattered Clouds,290,2012-12-27 04:56:00
9:56 PM,50.0,39.9,68,30.09,10.0,WNW,9.2,-,N/A,,Scattered Clouds,300,2012-12-27 05:56:00
10:56 PM,50.0,41.0,71,30.11,10.0,WNW,9.2,-,N/A,,Scattered Clouds,300,2012-12-27 06:56:00
11:56 PM,48.9,39.9,71,30.12,10.0,West,16.1,-,N/A,,Scattered Clouds,280,2012-12-27 07:56:00
12:56 AM,50.0,39.0,66,30.11,10.0,WNW,10.4,-,N/A,,Scattered Clouds,300,2012-12-27 08:56:00
1:56 AM,50.0,37.9,63,30.12,10.0,WNW,9.2,-,N/A,,Mostly Cloudy,300,2012-12-27 09:56:00
2:56 AM,50.0,39.0,66,30.12,10.0,WNW,6.9,-,N/A,,Mostly Cloudy,300,2012-12-27 10:56:00
3:56 AM,48.9,39.0,69,30.10,10.0,NW,8.1,-,N/A,,Mostly Cloudy,310,2012-12-27 11:56:00
4:56 AM,48.9,37.9,66,30.11,10.0,WNW,9.2,-,N/A,,Overcast,290,2012-12-27 12:56:00
5:56 AM,48.9,37.9,66,30.12,10.0,WNW,6.9,-,N/A,,Mostly Cloudy,300,2012-12-27 13:56:00
6:56 AM,50.0,36.0,59,30.13,10.0,WNW,12.7,-,N/A,,Mostly Cloudy,300,2012-12-27 14:56:00
7:56 AM,48.9,36.0,61,30.14,10.0,NW,8.1,-,N/A,,Partly Cloudy,310,2012-12-27 15:56:00
8:56 AM,50.0,37.9,63,30.14,10.0,North,8.1,-,N/A,,Partly Cloudy,360,2012-12-27 16:56:00
9:56 AM,50.0,39.9,68,30.17,10.0,NNE,6.9,-,N/A,,Partly Cloudy,30,2012-12-27 17:56:00
10:56 AM,51.1,39.0,63,30.16,10.0,North,5.8,-,N/A,,Partly Cloudy,10,2012-12-27 18:56:00
11:56 AM,51.8,39.2,62,30.14,10.0,North,6.9,-,N/A,,Partly Cloudy,10,2012-12-27 19:56:00
12:56 PM,53.1,39.9,61,30.13,10.0,NNE,6.9,-,N/A,,Partly Cloudy,20,2012-12-27 20:56:00
1:56 PM,53.1,41.0,64,30.12,10.0,NE,4.6,-,N/A,,Partly Cloudy,50,2012-12-27 21:56:00
2:56 PM,54.0,39.9,59,30.12,10.0,Calm,Calm,-,N/A,,Scattered Clouds,0,2012-12-27 22:56:00
3:56 PM,53.6,37.4,54,30.13,10.0,West,6.9,-,N/A,,Scattered Clouds,280,2012-12-27 23:56:00
4:56 PM,52.0,39.0,61,30.13,10.0,West,6.9,-,N/A,,Scattered Clouds,270,2012-12-28 00:56:00
5:56 PM,51.8,39.2,62,30.14,10.0,West,8.1,-,N/A,,Scattered Clouds,260,2012-12-28 01:56:00
6:56 PM,50.0,41.0,71,30.15,10.0,WSW,3.5,-,N/A,,Partly Cloudy,250,2012-12-28 02:56:00
7:56 PM,50.0,42.1,74,30.15,10.0,West,5.8,-,N/A,,Scattered Clouds,270,2012-12-28 03:56:00
8:56 PM,46.9,41.0,80,30.16,10.0,Variable,3.5,-,N/A,,Scattered Clouds,0,2012-12-28 04:56:00
9:56 PM,50.0,44.1,80,30.17,10.0,NNE,3.5,-,N/A,,Partly Cloudy,20,2012-12-28 05:56:00
10:56 PM,46.0,41.0,83,30.18,10.0,South,3.5,-,N/A,,Mostly Cloudy,190,2012-12-28 06:56:00
11:56 PM,46.9,41.0,80,30.18,10.0,Calm,Calm,-,N/A,,Mostly Cloudy,0,2012-12-28 07:56:00
12:56 AM,46.9,41.0,80,30.18,10.0,South,4.6,-,N/A,,Mostly Cloudy,180,2012-12-28 08:56:00
1:56 AM,45.0,39.0,80,30.19,10.0,Calm,Calm,-,N/A,,Mostly Cloudy,0,2012-12-28 09:56:00
2:56 AM,44.1,39.0,82,30.19,10.0,SSE,5.8,-,N/A,,Mostly Cloudy,160,2012-12-28 10:56:00
3:56 AM,45.0,37.9,76,30.17,10.0,ESE,6.9,-,N/A,,Mostly Cloudy,120,2012-12-28 11:56:00
4:56 AM,43.0,39.0,86,30.16,10.0,Calm,Calm,-,N/A,,Mostly Cloudy,0,2012-12-28 12:56:00
5:56 AM,41.0,37.0,86,30.17,10.0,Calm,Calm,-,N/A,,Mostly Cloudy,0,2012-12-28 13:56:00
6:56 AM,44.1,39.0,82,30.17,10.0,Calm,Calm,-,N/A,,Mostly Cloudy,0,2012-12-28 14:56:00
7:56 AM,44.1,39.0,82,30.17,10.0,SSE,3.5,-,N/A,,Mostly Cloudy,160,2012-12-28 15:56:00
8:56 AM,45.0,39.0,80,30.18,10.0,Calm,Calm,-,N/A,,Mostly Cloudy,0,2012-12-28 16:56:00
9:56 AM,46.0,37.9,73,30.18,10.0,SE,5.8,-,N/A,,Mostly Cloudy,130,2012-12-28 17:56:00
10:56 AM,46.0,37.9,73,30.16,10.0,SE,6.9,-,N/A,,Mostly Cloudy,130,2012-12-28 18:56:00
11:56 AM,46.9,39.0,74,30.13,10.0,SE,6.9,-,N/A,,Overcast,130,2012-12-28 19:56:00
12:56 PM,48.0,37.9,68,30.11,10.0,East,4.6,-,N/A,,Overcast,80,2012-12-28 20:56:00
1:56 PM,48.9,39.0,69,30.09,10.0,ENE,4.6,-,N/A,,Overcast,70,2012-12-28 21:56:00
2:56 PM,50.0,37.4,62,30.09,10.0,East,4.6,-,N/A,,Mostly Cloudy,90,2012-12-28 22:56:00
3:56 PM,50.0,37.0,61,30.08,10.0,NE,3.5,-,N/A,,Mostly Cloudy,50,2012-12-28 23:56:00
4:56 PM,48.9,39.0,69,30.06,10.0,East,4.6,-,N/A,,Mostly Cloudy,100,2012-12-29 00:56:00
5:56 PM,50.0,39.9,68,30.05,10.0,ENE,5.8,-,N/A,,Mostly Cloudy,70,2012-12-29 01:56:00
6:56 PM,50.0,39.9,68,30.05,10.0,East,4.6,-,N/A,,Mostly Cloudy,80,2012-12-29 02:56:00
7:56 PM,50.0,41.0,71,30.04,10.0,East,6.9,-,N/A,,Mostly Cloudy,90,2012-12-29 03:56:00
8:56 PM,48.9,41.0,74,30.04,10.0,ENE,10.4,-,0.00,Rain,Light Rain,60,2012-12-29 04:56:00
9:56 PM,48.0,39.9,74,30.04,9.0,ENE,10.4,-,0.02,Rain,Light Rain,70,2012-12-29 05:56:00
10:56 PM,46.9,39.9,77,30.06,6.0,NNE,6.9,-,0.09,Rain,Rain,30,2012-12-29 06:56:00
11:56 PM,46.9,39.9,77,30.05,6.0,NE,9.2,-,0.06,Rain,Light Rain,40,2012-12-29 07:56:00
12:07 AM,46.4,39.2,76,30.05,6.0,NE,10.4,-,0.00,Rain,Light Rain,40,2012-12-29 08:07:00
12:52 AM,46.4,41.0,81,30.04,6.0,NE,15.0,-,0.02,Rain,Light Rain,40,2012-12-29 08:52:00
12:56 AM,46.0,39.9,79,30.04,6.0,NE,13.8,-,0.02,Rain,Light Rain,40,2012-12-29 08:56:00
1:56 AM,46.0,39.9,79,30.04,5.0,NE,12.7,-,0.05,Rain,Light Rain,50,2012-12-29 09:56:00
2:56 AM,46.0,41.0,83,30.03,8.0,ENE,15.0,-,0.02,Rain,Light Rain,60,2012-12-29 10:56:00
3:56 AM,46.0,39.9,79,30.02,9.0,NE,17.3,-,0.00,Rain,Light Rain,50,2012-12-29 11:56:00
4:56 AM,46.0,39.9,79,30.01,10.0,NE,18.4,-,0.02,Rain,Light Rain,50,2012-12-29 12:56:00
5:56 AM,46.0,39.0,76,30.01,10.0,NNE,13.8,-,0.00,,Mostly Cloudy,30,2012-12-29 13:56:00
6:56 AM,46.0,39.0,76,30.03,10.0,NE,16.1,-,N/A,,Overcast,40,2012-12-29 14:56:00
7:56 AM,46.9,39.0,74,30.04,10.0,ENE,9.2,-,N/A,,Overcast,60,2012-12-29 15:56:00
8:56 AM,46.9,37.9,71,30.06,10.0,ENE,10.4,-,N/A,,Overcast,60,2012-12-29 16:56:00
9:56 AM,48.2,37.4,66,30.06,10.0,ENE,9.2,-,N/A,,Mostly Cloudy,60,2012-12-29 17:56:00
10:56 AM,48.9,39.0,69,30.06,10.0,East,5.8,-,N/A,,Mostly Cloudy,100,2012-12-29 18:56:00
11:56 AM,48.9,39.9,71,30.04,10.0,East,4.6,-,N/A,,Mostly Cloudy,90,2012-12-29 19:56:00
12:56 PM,51.1,39.9,66,30.03,10.0,ENE,3.5,-,N/A,,Mostly Cloudy,60,2012-12-29 20:56:00
1:56 PM,52.0,39.9,63,30.03,10.0,Calm,Calm,-,N/A,,Mostly Cloudy,0,2012-12-29 21:56:00
2:56 PM,54.0,43.0,66,30.03,10.0,North,3.5,-,N/A,,Scattered Clouds,10,2012-12-29 22:56:00
3:56 PM,53.1,39.9,61,30.04,10.0,NW,3.5,-,N/A,,Partly Cloudy,310,2012-12-29 23:56:00
4:56 PM,52.0,37.9,59,30.03,10.0,Calm,Calm,-,N/A,,Partly Cloudy,0,2012-12-30 00:56:00
5:56 PM,50.0,39.0,66,30.04,10.0,SSW,3.5,-,N/A,,Partly Cloudy,200,2012-12-30 01:56:00
6:56 PM,48.0,39.0,71,30.05,10.0,West,5.8,-,N/A,,Clear,280,2012-12-30 02:56:00
7:56 PM,46.9,39.9,77,30.07,10.0,West,4.6,-,N/A,,Partly Cloudy,280,2012-12-30 03:56:00
8:56 PM,46.9,39.0,74,30.08,10.0,Calm,Calm,-,N/A,,Partly Cloudy,0,2012-12-30 04:56:00
9:56 PM,46.0,39.9,79,30.08,10.0,SSW,5.8,-,N/A,,Partly Cloudy,210,2012-12-30 05:56:00
10:56 PM,46.9,41.0,80,30.09,10.0,SSE,3.5,-,N/A,,Clear,160,2012-12-30 06:56:00
11:56 PM,45.0,39.9,82,30.09,10.0,SE,3.5,-,N/A,,Clear,140,2012-12-30 07:56:00
12:56 AM,45.0,41.0,86,30.07,10.0,SSE,4.6,-,N/A,,Clear,160,2012-12-30 08:56:00
1:56 AM,43.0,39.0,86,30.08,10.0,Calm,Calm,-,N/A,,Mostly Cloudy,0,2012-12-30 09:56:00
2:56 AM,43.0,39.0,86,30.08,10.0,Calm,Calm,-,N/A,,Mostly Cloudy,0,2012-12-30 10:56:00
3:23 AM,42.8,39.2,87,30.07,10.0,Calm,Calm,-,N/A,,Mostly Cloudy,0,2012-12-30 11:23:00
3:56 AM,43.0,39.0,86,30.06,10.0,Calm,Calm,-,N/A,,Mostly Cloudy,0,2012-12-30 11:56:00
4:56 AM,41.0,37.9,89,30.06,10.0,West,4.6,-,N/A,,Mostly Cloudy,280,2012-12-30 12:56:00
5:56 AM,41.0,37.9,89,30.06,10.0,West,3.5,-,N/A,,Scattered Clouds,270,2012-12-30 13:56:00
6:56 AM,42.1,39.0,89,30.08,10.0,Calm,Calm,-,N/A,,Scattered Clouds,0,2012-12-30 14:56:00
7:56 AM,43.0,39.0,86,30.08,10.0,Calm,Calm,-,N/A,,Scattered Clouds,0,2012-12-30 15:56:00
8:56 AM,44.1,39.9,85,30.10,10.0,South,3.5,-,N/A,,Scattered Clouds,190,2012-12-30 16:56:00
9:56 AM,46.0,39.9,79,30.12,10.0,Calm,Calm,-,N/A,,Mostly Cloudy,0,2012-12-30 17:56:00
10:33 AM,46.4,41.0,81,30.13,10.0,Calm,Calm,-,N/A,,Scattered Clouds,0,2012-12-30 18:33:00
10:56 AM,48.0,42.1,80,30.13,10.0,Calm,Calm,-,N/A,,Partly Cloudy,0,2012-12-30 18:56:00
11:56 AM,48.9,41.0,74,30.11,10.0,Calm,Calm,-,N/A,,Partly Cloudy,0,2012-12-30 19:56:00
12:56 PM,51.1,39.9,66,30.08,10.0,North,5.8,-,N/A,,Partly Cloudy,10,2012-12-30 20:56:00
1:56 PM,53.1,39.9,61,30.07,10.0,Calm,Calm,-,N/A,,Partly Cloudy,0,2012-12-30 21:56:00
2:56 PM,55.0,37.0,51,30.08,10.0,North,3.5,-,N/A,,Partly Cloudy,10,2012-12-30 22:56:00
3:56 PM,53.1,39.0,59,30.08,10.0,WNW,12.7,-,N/A,,Partly Cloudy,290,2012-12-30 23:56:00
4:56 PM,51.1,39.9,66,30.09,10.0,West,8.1,-,N/A,,Partly Cloudy,270,2012-12-31 00:56:00
5:56 PM,48.9,39.0,69,30.09,10.0,WSW,5.8,-,N/A,,Partly Cloudy,250,2012-12-31 01:56:00
6:56 PM,48.0,39.9,74,30.11,10.0,West,8.1,-,N/A,,Clear,280,2012-12-31 02:56:00
7:56 PM,48.9,39.0,69,30.12,10.0,WNW,8.1,-,N/A,,Clear,290,2012-12-31 03:56:00
8:56 PM,46.9,37.9,71,30.13,10.0,West,5.8,-,N/A,,Clear,280,2012-12-31 04:56:00
9:56 PM,50.0,33.1,52,30.16,10.0,WNW,4.6,-,N/A,,Clear,300,2012-12-31 05:56:00
10:56 PM,50.0,32.0,50,30.18,10.0,West,5.8,-,N/A,,Clear,270,2012-12-31 06:56:00
11:56 PM,48.0,32.0,54,30.18,10.0,NNW,5.8,-,N/A,,Clear,330,2012-12-31 07:56:00
12:56 AM,46.0,33.1,61,30.20,10.0,Calm,Calm,-,N/A,,Clear,0,2012-12-31 08:56:00
1:56 AM,44.1,34.0,68,30.22,10.0,Calm,Calm,-,N/A,,Scattered Clouds,0,2012-12-31 09:56:00
2:56 AM,42.1,33.1,70,30.23,10.0,Calm,Calm,-,N/A,,Mostly Cloudy,0,2012-12-31 10:56:00
3:56 AM,41.0,33.1,73,30.24,10.0,South,4.6,-,N/A,,Mostly Cloudy,170,2012-12-31 11:56:00
4:56 AM,42.1,35.1,76,30.22,10.0,SSE,4.6,-,N/A,,Partly Cloudy,150,2012-12-31 12:56:00
5:56 AM,39.2,30.2,70,30.23,10.0,Calm,Calm,-,N/A,,Partly Cloudy,0,2012-12-31 13:56:00
6:56 AM,41.0,30.9,67,30.26,10.0,Calm,Calm,-,N/A,,Partly Cloudy,0,2012-12-31 14:56:00
7:56 AM,37.9,30.0,73,30.28,10.0,SW,4.6,-,N/A,,Scattered Clouds,230,2012-12-31 15:56:00
8:56 AM,45.0,35.1,68,30.28,10.0,SE,4.6,-,N/A,,Mostly Cloudy,140,2012-12-31 16:56:00
9:56 AM,46.9,30.0,52,30.30,10.0,ESE,6.9,-,N/A,,Mostly Cloudy,120,2012-12-31 17:56:00
10:56 AM,48.9,27.0,43,30.30,10.0,ESE,6.9,-,N/A,,Scattered Clouds,120,2012-12-31 18:56:00
11:56 AM,50.0,30.9,48,30.28,10.0,East,6.9,-,N/A,,Scattered Clouds,100,2012-12-31 19:56:00
12:56 PM,51.1,28.9,43,30.26,10.0,East,3.5,-,N/A,,Scattered Clouds,100,2012-12-31 20:56:00
1:56 PM,51.1,25.0,36,30.25,10.0,Calm,Calm,-,N/A,,Mostly Cloudy,0,2012-12-31 21:56:00
2:56 PM,53.1,27.0,37,30.25,10.0,Calm,Calm,-,N/A,,Mostly Cloudy,0,2012-12-31 22:56:00
3:56 PM,51.1,30.9,46,30.25,10.0,Calm,Calm,-,N/A,,Mostly Cloudy,0,2012-12-31 23:56:00
4:56 PM,51.1,28.0,41,30.25,10.0,SSW,3.5,-,N/A,,Mostly Cloudy,210,2013-01-01 00:56:00
5:56 PM,50.0,36.0,59,30.27,10.0,West,4.6,-,N/A,,Mostly Cloudy,280,2013-01-01 01:56:00
6:56 PM,50.0,37.0,61,30.25,10.0,South,5.8,-,N/A,,Mostly Cloudy,190,2013-01-01 02:56:00
7:56 PM,50.0,39.0,66,30.26,10.0,Calm,Calm,-,N/A,,Mostly Cloudy,0,2013-01-01 03:56:00
8:56 PM,48.9,37.9,66,30.26,10.0,Calm,Calm,-,N/A,,Mostly Cloudy,0,2013-01-01 04:56:00
9:56 PM,46.9,39.0,74,30.27,10.0,SSE,4.6,-,N/A,,Mostly Cloudy,160,2013-01-01 05:56:00
10:56 PM,46.0,39.0,76,30.27,10.0,Calm,Calm,-,N/A,,Partly Cloudy,0,2013-01-01 06:56:00
11:56 PM,44.1,37.9,79,30.25,10.0,Calm,Calm,-,N/A,,Partly Cloudy,0,2013-01-01 07:56:00
